FTAE32 VTBB 240500
TAF VGHS 240500Z 2406/2512 14008KT 4000 HZ FEW015 SCT100 TEMPO 2406/2412 14015G25KT 2000 RA TSRA BKN008 FEW025CB OVC090 BECMG 2500/2502 16006KT 3500 HZ FEW012 SCT100 BECMG 2504/2506 16008KT 4000 HZ FEW015 SCT100
