FTAE31 VTBB 241700
TAF VTCC 241700Z 2418/2524 23005KT 9999 SCT035 BECMG 2501/2503 17005KT TEMPO 2507/2513 18015G25KT 4000 TSRA FEW025CB BKN035 BECMG 2509/2511 26005KT TEMPO 2515/2520 -TSRA FEW025CB BKN035 BECMG 2516/2518 20005KT
