FTAE33 VTBB 241700
TAF VLLB 241700Z 2418/2518 22004KT 9999 SCT010 BKN080
