FTAF36 KWBC 241154
TAF HBBA 241100Z 2412/2518 18010G20KT 9999 FEW030 BECMG 2413/2415 18008KT BECMG 2502/2504 36003KT 5000 HZ FEW025 BECMG 2510/2512 18010KT 9999 FEW030
