FTAG31 KWBC 242333 RRA
TAF SAZS 242300Z 2500/2524 30020KT 9000 VCSH FEW030 BKN035 BKN045 TX06/2519Z TN01/2511Z BECMG 2500/2502 8000 RA SCT010 OVC020 TEMPO 2503/2509 4000 RA OVC010 BECMG 2507/2510 30010KT PROB40 2509/2511 3000 SNRA BKN008 OVC020 BECMG 2513/2515 28010KT 9999 FEW015
