FTAG11 SABM 240000 AAA
TAF AMD SABE 240300Z 2403/2424 13005KT 3500 BR NSC TX17/2418Z TN12/2400Z TEMPO 2403/2407 1200 BR SCT004 BECMG 2407/2409 36005KT 6000 BECMG 2411/2413 34010KT 9999 SCT030 BKN050 TEMPO 2414/2420 3000 SHRA SCT030 FEW040TCU BKN050
