FTAG05 SABM 241700 RRA
TAF SAZS 241700Z 2418/2518 29020G30KT 9999 SCT035 TX10/2419Z TN01/2511Z TEMPO 2418/2421 29025G40KT BECMG 2422/2424 8000 RA SCT010 OVC020 TEMPO 2503/2509 4000 RA OVC010 PROB40 2509/2511 3000 SN BKN008 OVC020 BECMG 2513/2515 28010KT 9999 SCT015
