FTAJ31 UBBB 240500
TAF UBBQ 240452Z 2406/2506 30006KT 9999 SCT100 TX31/2410Z TN21/2501Z TEMPO 2406/2410 26006KT BECMG 2410/2412 34006KT BKN040 FEW050CB TEMPO 2412/2418 -SHRA SCT050CB PROB40 TEMPO 2410/2418 TS BKN040CB TEMPO 2418/2506 5000 -SHRA SCT012 BKN040CB OVC050
