FTAL40 DAMM 241700
TAF DAUH 241700Z 2418/2518 36006KT CAVOK BECMG 2419/2421 06014KT PROB30 2421/2424 4000 SA BECMG 2423/2501 12010KT BECMG 2505/2507 VRB02KT BECMG 2516/2518 02010KT
