FTAM31 FCBB 240500
TAF FEFF 240500Z 2406/2512 VRB02KT 9999 FEW007 BECMG 2407/2409 BKN013 BECMG 2410/2412 BKN023 FEW033CB PROB30 TEMPO 2413/2417 VRB17KT 4000 TSRA FM241830 VRB03KT 8000 FEW010
