FTAM20 FCBB 241700 RRA
TAF FGBT 241700Z 2418/2518 23008KT 9999 SCT010 PROB30 TEMPO 2504/2509 4000 DZ BKN008 FEW020CB
