FTAN40 FNLU 242300
TAF FNBC 242300Z 2500/2512 19006KT 9999 FEW022 TEMPO 2503/2508 5000 BR BECMG 2509/2512 20005KT SCT018
