FTAO24 DRRN 241100 RRB
TAF DNBE 241100Z 2412/2518 22010KT 9999 BKN010 TEMPO 2412/2418 SCT012 FEW020CB PROB30 2413/2417 5000 -TSRA BKN009 FEW019CB BECMG 2418/2420 VRB02KT SCT009 TEMPO 2505/2508 3000 BR BECMG 2508/2510 BKN011 TEMPO 2511/2516 BKN011 FEW020CB BECMG 2516/2518 VRB02KT SCT011
