FTAS33 KWBC 240509
TAF WMKP 240500Z 2406/2506 23008KT 8000 FEW020 BECMG 2413/2415 VRB03KT FEW025
