FTAW33 KWBC 240509
TAF OMAL 240500Z 2406/2512 20005KT 8000 NSC BECMG 2406/2408 30014KT PROB30 TEMPO 2409/2412 30016G26KT 4000 BLDU BECMG 2416/2418 12007KT BECMG 2506/2508 29013KT
