FTAW42 KWBC 240509
TAF OMAD 240500Z 2406/2512 22005KT 8000 NSC BECMG 2406/2408 30012KT BECMG 2415/2417 19005KT BECMG 2506/2508 30014KT
