FTBE31 TXKF 241130
TAF TXKF 241130Z 2412/2512 14004KT 9999 VCSH FEW022 SCT040 BKN180
