FTBH31 MZBZ 241540
TAF MZBZ 241540Z 2418/2518 09007KT 9999 SCT023 PROB40 TEMPO 2508/2518 5000 SHRA BKN014 PROB30 TEMPO 2511/2518 4000 TSRA FEW012CB BKN014
