FTBN31 OBBI 240500
TAF OBBI 240500Z 2406/2512 33014KT CAVOK BECMG 2416/2418 VRB05KT BECMG 2504/2506 34015KT
