FTBR31 TBPB 240406
TAF TBPB 240500Z 2406/2506 10016KT 9999 SCT018 PROB30 TEMPO 2406/2413 10016G33KT 5000 SHRA BKN014 BKN032
