FTBW31 VGEG 240500
TAF VGEG 240500Z 2406/2512 18010KT 4000 HZ SCT010 BKN080 TEMPO 2408/2418 14015G25KT 2000 RA TSRA BKN008 FEW025CB OVC080 BECMG 2420/2422 14008KT 3500 HZ SCT012 BKN080 TEMPO 2500/2508 18012G20KT 2000 RA TSRA SCT008 FEW025CB OVC080
