FTBY31 UMMN 241100
TAF UMMS 241111Z 2412/2512 10005G10MPS 9999 BKN025 TEMPO 2412/2419 3000 -TSRA FEW007 BKN020CB BECMG 2419/2420 VRB02MPS TEMPO 2420/2506 3000 BCFG BR FEW003 BECMG 2506/2507 12005G10MPS TEMPO 2507/2512 3000 -TSRA FEW005 BKN025CB
