FTCA01 MWCR 241100
TAF MWCR 241100Z 2412/2512 08010KT 9999 VCTS FEW016CB SCT040 PROB40 TEMPO 2412/2415 7000 TSRA BKN016CB PROB30 TEMPO 2418/2421 8000 -TSRA SCT016CB
