FTCA45 KWBC 242124
TAF MNPC 242125Z 2500/2524 34004G20KT 5000 TSRA -DZ FEW014CB BKN016 TEMPO 2506/2512 03004KT 7000 HZ SCT016 BECMG 2514/2518 07012KT 6000 RA -DZ BKN016
