FTCI41 KWBC 240533
TAF RCNN 240500Z 2406/2506 32025G35KT 4800 -RA BR SCT006 FEW010CB BKN020 OVC040 TX29/2505Z TN24/2421Z TEMPO 2407/2412 2400 RA BR SCT004 FEW010CB BKN010 OVC020 BECMG 2418/2421 27030G40KT 2400 RA BR SCT004 FEW010CB BKN010 OVC020 BECMG 2501/2504 22020G30KT 4800 -RA BR SCT006 FEW010CB BKN020 OVC040
