FTCI32 KWBC 241251 CCA
TAF COR ZMUB 241115Z 2412/2518 VRB02MPS 9999 FEW030CB BKN033 BKN100 TN12/2421Z TX17/2507Z TEMPO 2412/2418 VRB08G13MPS 6000 TSRA SCT027CB BKN030 BKN080 BECMG 2416/2418 6000 RA FEW017 FEW027CB BKN030 BKN080 BECMG 2421/2423 34005MPS BECMG 2501/2503 34008MPS BECMG 2511/2513 VRB02MPS
