FTCO20 SKBO 242230
TAF SKRG 242230Z 2500/2524 VRB02KT 9999 SCT015 TEMPO 2502/2506 DZ BKN010 BECMG 2507/2509 4000 BR BKN005 PROB40 TEMPO 2510/2512 0800 FG VV001 BECMG 2513/2515 12012KT 9999 NSW SCT020 TEMPO 2519/2522 SCT020TCU TX25/2520Z TN12/2510Z
