FTCR33 LEMM 242000
TAF GCHI 242000Z 2421/2521 33018KT 9999 FEW012 TX28/2514Z TN22/2506Z PROB30 TEMPO 2421/2422 34018G30KT PROB40 TEMPO 2422/2509 32008KT PROB30 TEMPO 2510/2521 34018G30KT
