FTCS31 MROC 241733
TAF MROC 241733Z 2418/2518 09008KT 9999 FEW040 TX28/2419Z TN20/2511Z TEMPO 2421/2423 5000 TSRA SCT015CB TEMPO 2500/2502 5000 BR BKN015 BECMG 2503/2506 07007KT BECMG 2512/2515 25008KT
