FTCV20 GVAC 240500
TAF GVNP 240500Z 2406/2512 02008KT 9999 BKN018 BECMG 2412/2414 12005KT BECMG 2421/2423 VRB03KT TEMPO 2423/2506 5000 RA BKN012 BKN016
