FTCY01 EGRR 240500
TAF LCRA 240445Z 2406/2424 04004KT CAVOK PROB30 TEMPO 2406/2409 34005KT BECMG 2409/2412 25015KT TEMPO 2411/2417 26016G26KT
