FTCZ43 LKMW 240500
TAF LKKB 240500Z 2406/2506 30008KT CAVOK BECMG 2406/2408 31012KT TEMPO 2406/2418 33016KT 8000 SHRA SCT030TCU BKN033 PROB30 TEMPO 2412/2415 33014G24KT 6000 SHRA SCT030CB BECMG 2420/2422 32006KT
