FTCZ32 LKPW 241100
TAF LKMT 241100Z 2412/2512 36008KT 9999 BKN035 TEMPO 2412/2417 6000 SHRA SCT015 BKN030TCU PROB40 TEMPO 2412/2416 35012G24KT 4500 TSRA SCT025CB BECMG 2418/2420 VRB02KT CAVOK TEMPO 2422/2505 8000 BKN020
