FTCZ31 LKPW 240200
TAF LKPR 240200Z 2403/2509 27012KT CAVOK PROB30 TEMPO 2403/2405 5000 TSRA SCT040CB BECMG 2406/2408 32012KT TEMPO 2409/2417 7000 SHRA SCT040TCU BKN045
