FTDC31 EHDB 240500 RRA
TAF TNCB 240535Z 2406/2512 10016KT 9999 SCT020 PROB40 TEMPO 2409/2420 4000 SHRA SCT018CB
