FTDL33 KWBC 242327
TAF EDDG 242300Z 2500/2524 VRB02KT CAVOK TEMPO 2501/2506 3500 BR PROB40 TEMPO 2501/2505 1500 BCFG BECMG 2508/2510 20005KT BECMG 2519/2521 14003KT TEMPO 2522/2524 RA
