FTDN32 EKCH 240200
TAF EKYT 240209Z 2403/2503 31005KT 9999 BKN030 TEMPO 2403/2407 VRB03KT 0600 FG BCFG BKN002 TEMPO 2410/2416 4000 SHRA BKN010 SCT015CB TEMPO 2423/2503 5000 BR
