FTEE31 KWBC 240106 AAA
TAF AMD EPSC 240101Z 2401/2424 VRB04KT 9999 BKN035 TEMPO 2401/2407 4000 SHRA BKN003 BKN015CB BECMG 2406/2409 28012KT TEMPO 2407/2417 30015G25KT 4000 SHRA BKN025CB PROB40 TEMPO 2407/2417 1300 TSRA SCT006 BKN012CB
