FTEE32 KWBC 241733
TAF LRCK 241700Z 2418/2518 VRB04KT CAVOK PROB40 TEMPO 2502/2506 VRB16KT 5000 TSRA SCT040CB BECMG 2506/2508 SCT035CB TEMPO 2508/2512 VRB18G28KT 3000 TSRA SCT010 BKN035CB TEMPO 2512/2518 5000 TSRA
