FTEG32 HECA 241700
TAF HEOW 241700Z 2418/2524 160010G25KT 6000 SCT025 BKN080 TEMPO 2418/2503 3000 -RA SA PROB40 TEMPO 2418/2501 1000 -TSRA SA FEW020CB
