FTEG31 HECA 241700
TAF HEAL 241700Z 2418/2524 31011KT CAVOK BECMG 2422/2424 23007KT TEMPO 2500/2506 VRB03KT 4000 BR NSC BECMG 2510/2512 33010KT
