FTEN31 KWBC 240851 AAA
TAF AMD EYVI 240848Z 2408/2506 VRB05KT 8000 BKN010 BKN015 BECMG 2409/2411 SCT010 BKN020 TEMPO 2411/2415 VRB15G25KT 3000 TSRA SCT005 BKN035CB TEMPO 2415/2421 SCT015CB BKN035 TEMPO 2421/2506 1500 MIFG BR BKN003 BKN045CB
