FTER32 OMAE 241100
TAF OMFJ 241100Z 2412/2518 07010KT 8000 NSC BECMG 2414/2416 29014KT PROB30 2418/2502 30015G25KT 4000 BLDU
