FTES31 MSLP 240400
TAF MSLP 240400Z 2406/2506 VRB02KT 9999 FEW027 TX34/2418Z TN24/2410Z FM241300 04006KT 9999 FEW030 FM241700 20006KT 9999 FEW033 FM250100 VRB02KT 9999 FEW027 FEW037CB TEMPO 2505/2506 06008KT 6000 TSRA SCT027 SCT030CB BKN060 
