FTET31 HAAB 241620
TAF HADC 241530Z 2418/2524 34007KT 9999 BKN020 OVC080 BECMG 2418/2422 04006KT 5000 -TSRA SHRA FEW023CB BECMG 2423/2502 03007KT 7000 RA OVC024
