FTFI31 EFKL 241100 AAB
TAF AMD EFVA 241230Z 2412/2512 27007KT 9999 FEW014 BKN020 TEMPO 2412/2414 7000 +TSRA BKN013 SCT040CB TEMPO 2414/2418 7000 TSRA SCT040CB PROB30 2420/2422 2000 MIFG BECMG 2422/2424 0300 FG VV002 TEMPO 2500/2505 3000 BCFG BKN001 BECMG 2505/2507 9999 NSW FEW007 TEMPO 2507/2512 TSRA FEW020CB
