FTFI32 EFKL 240200
TAF EFJY 240236Z 2403/2503 VRB02KT CAVOK PROB30 TEMPO 2403/2408 FEW070TCU BECMG 2408/2410 17010KT TEMPO 2408/2415 FEW050CB BECMG 2416/2418 VRB02KT PROB30 2500/2503 0900 BCFG
