FTFR34 LFPW 240500 RRC
TAF LFBZ 240500Z 2406/2506 25005KT 9999 BKN009 TEMPO 2406/2408 3000 -RADZ BKN005 BECMG 2408/2410 BKN020 BECMG 2410/2412 33010KT CAVOK BECMG 2500/2502 OVC004 TEMPO 2502/2506 4000 -RADZ BKN002
