FTFR39 LFPW 241100 RRB
TAF LFOT 241100Z 2412/2512 07005KT 9999 BKN040 BECMG 2412/2414 CAVOK BECMG 2422/2424 VRB02KT BECMG 2509/2511 22005KT
