FTFR16 LFPW 240200 RRB
TAF LFSX 240530Z 2405/2503 29005KT 1500 BR SCT001 BECMG 2405/2407 CAVOK
