FTFR44 LFXV 241400
TAF LFMY 241400Z 2415/2515 34020KT CAVOK TX36/2512Z TN20/2502Z TEMPO 2415/2418 34020G35KT BECMG 2419/2421 33015G25KT BECMG 2501/2503 34010KT BECMG 2510/2512 26010KT
