FTFR19 LFPW 240200 RRB
TAF LFMY 240417Z 2403/2503 32020G35KT CAVOK TX32/2415Z TN22/2405Z BECMG 2419/2421 33015G25KT BECMG 2501/2503 34010KT
