FTFR25 LFPW 241400 RRA
TAF LFKC 241400Z 2415/2515 35010KT 9999 SCT035 TX32/2512Z TN20/2503Z BECMG 2418/2421 VRB03KT CAVOK BECMG 2507/2509 35010KT TEMPO 2511/2515 FEW025 FEW035CB BKN150
