FTFR26 LFPW 240800 AAA
TAF AMD LFTH 240907Z 2409/2509 33005KT CAVOK TEMPO 2409/2412 23010G20KT BECMG 2412/2414 12010KT BECMG 2419/2421 VRB03KT PROB30 TEMPO 2423/2502 4000 BR
