FTFR38 LFPW 242300
TAF LFRH 242300Z 2500/2524 29005KT CAVOK TEMPO 2509/2516 BKN008 BECMG 2515/2517 OVC008 TEMPO 2517/2519 3000 RADZ BKN003 TEMPO 2519/2524 1500 RADZ OVC002 PROB40 TEMPO 2522/2524 0800 FG VV///
