FTFR37 LFPW 241700 RRA
TAF LFBU 241700Z 2418/2518 30010KT CAVOK BECMG 2422/2424 VRB03KT PROB30 TEMPO 2501/2506 4000 BR BECMG 2512/2514 28010KT
