FTFR31 LFPW 240500 AAB
TAF AMD LFPG 240549Z 2406/2512 01003KT 9999 BKN005 TX26/2416Z TN18/2504Z TEMPO 2406/2408 3000 BR BKN003 PROB40 TEMPO 2406/2408 1200 BR BKN001 BECMG 2408/2409 BKN016
