FTFR30 LFPW 240200
TAF LFLS 240200Z 2403/2503 VRB03KT 9999 SCT030 PROB30 TEMPO 2403/2408 BKN014 BECMG 2408/2410 36010KT BECMG 2412/2415 CAVOK BECMG 2421/2423 VRB03KT
