FTFR21 LFPW 241400
TAF LFML 241400Z 2415/2521 33020G30KT CAVOK TX34/2514Z TN20/2503Z BECMG 2422/2424 33015KT BECMG 2502/2504 33005KT TEMPO 2509/2513 26010KT BECMG 2513/2515 19010KT BECMG 2519/2521 VRB04KT
