FTFR29 LFPW 240800 RRA
TAF LFMT 240800Z 2409/2509 33006KT CAVOK BECMG 2409/2411 19010KT BECMG 2414/2416 32010KT BECMG 2419/2421 02008KT
