FTGG31 UGTB 241700
TAF UGTB 241700Z 2418/2518 31022KT CAVOK TX30/2511Z TN21/2502Z TEMPO 2420/2502 31012KT SHRA SCT050CB BECMG 2502/2504 31012KT BECMG 2510/2512 VRB02KT SCT050CB BKN070 TEMPO 2512/2518 VRB12KT 4000 TSRA BKN040CB
