FTGL31 BGGH 240500
TAF BGSF 240501Z 2406/2512 VRB08KT 9999 SCT045 BKN180 TEMPO 2406/2412 BKN050 TEMPO 2418/2424 20015G25KT BKN050 TEMPO 2500/2509 -RA BKN050 BECMG 2500/2503 06012KT BECMG 2503/2506 VRB08KT
