FTGR31 LGAT 241100
TAF LGTS 241100Z 2412/2512 VRB03KT 9999 FEW030 BECMG 2412/2414 18013KT PROB30 TEMPO 2412/2422 5000 TSRA FEW018CB SCT025 BECMG 2420/2422 35015KT PROB40 TEMPO 2501/2512 35015G25KT 4000 TSRA FEW018CB SCT025
