FTHA31 MTPP 241100
TAF MTPP 241100Z 2412/2512 13012KT 9000 FEW020 PROB40 TEMPO 2413/2421 07015G25KT SCT024CB FM250600 09010KT 8000 FEW018
