FTHK33 VHHH 242300
TAF RCMQ 242300Z 2500/2524 22022G32KT 2400 -RA BR SCT004 BKN010 OVC025 TX30/2505Z TN28/2521Z TEMPO 2501/2506 1600 SHRA BKN004 OVC010 BECMG 2507/2510 1600 SHRA BKN004 OVC010 BECMG 2511/2514 19020KT 2400 -RA BR SCT004 BKN010 OVC025 TEMPO 2518/2523 5000 -RA BR SCT006 BKN020 OVC040
