FTID35 WAHH 242300
TAF WAHH 242300Z 2500/2524 22010KT 7000 SCT018 BECMG 2512/2514 00000KT
