FTID31 WAJJ 240000
TAF AMD WAJJ 240000Z 2400/2424 13008KT 8000 -RA SCT013 PROB40 TEMPO 2402/2406 3000 RA FEW012CB BKN013 BECMG 2406/2408 NSW
