FTID44 WIMM 241100
TAF WIMN 241100Z 2412/2424 23007KT 4000 BR SCT010
