FTID33 WAPP 241700 CCA
TAF COR WAPP 241700Z 2418/2518 34006KT 9999 SCT017 TEMPO 2419/2421 5000 RA FEW016CB
