FTIE31 EIDB 240500
TAF EIKN 240500Z 2406/2506 VRB03KT 9999 FEW015 BKN020 TEMPO 2406/2409 4000 -RA BKN007 PROB40 TEMPO 2406/2409 2000 -RADZ BR BKN004 BECMG 2409/2411 15010KT 2000 -RADZ BR BKN004 BECMG 2412/2414 19010KT TEMPO 2412/2424 0500 FG BKN001 BECMG 2419/2421 24010KT BECMG 2423/2501 6000 NSW BKN015 TEMPO 2501/2506 3000 -DZ BR BKN007
