FTIL31 BICC 241700
TAF BIKF 241652Z 2418/2518 17015KT 2500 -RADZ BR OVC003 TX13/2515Z TN10/2506Z TEMPO 2418/2419 0800 FG VV002 BECMG 2419/2421 BKN007 OVC012 TEMPO 2421/2506 3000 -DZ BR OVC010 BECMG 2422/2500 16005KT BECMG 2504/2506 SCT014 BKN025 BECMG 2515/2517 32010KT FEW014 BKN040
