FTIO39 FMMI 240500
TAF FMMT 240500Z 2406/2506 22006KT 9999 SCT017 SCT033 PROB30 TEMPO 2406/2415 4500 SHRA BECMG 2408/2410 16010KT BECMG 2416/2419 26006KT
