FTIR34 OIII 242300 RRA
TAF OISL 242300Z 2500/2606 30006KT 8000 NSC BECMG 2504/2506 20008KT TEMPO 2512/2515 18010KT FEW030CB
