FTIR32 OIII 242300 RRA
TAF OIIE 242300Z 2500/2606 13008KT 7000 FEW040 TEMPO 2500/2503 30008KT TEMPO 2509/2518 11018KT BECMG 2516/2518 30010KT 7000 FEW030 TEMPO 2518/2603 30020KT
