FTIY33 LIIB 241100
TAF LIPH 241100Z 2412/2512 VRB05KT 9999 SCT050 BECMG 2417/2419 04010KT PROB40 TEMPO 2418/2504 TSRA BECMG 2509/2511 VRB05KT
