FTIY31 LIIB 240500
TAF LIRP 240500Z 2406/2506 VRB03KT 9999 SCT015 PROB40 TEMPO 2411/2415 30010KT 7000 TSRA SCT020CB BKN030 BECMG 2415/2417 33005KT CAVOK BECMG 2421/2423 09005KT 9999 SCT080
