FTJM31 MKJP 241715
TAF MKJS 241715Z 2418/2518 07020KT 9999 FEW020 FEW022CB PROB 30 TEMPO 2418/2424 8000 TSRA SCT020CB BECMG 2502/2504 13006KT BECMG 2512/2514 07020KT
