FTJP32 RJTD 241100
TAF RJSN 241105Z 2412/2518 20006KT 8000 -SHRA FEW008 BKN015 TEMPO 2414/2418 4000 -TSRA BR FEW005 BKN008 FEW020CB TEMPO 2418/2421 4000 -SHRA BR FEW005 BKN008 TEMPO 2506/2509 4000 -TSRA BR FEW010 FEW020CB BKN030
