FTJP42 KWBC 240530
TAF RJFM 240515Z 2406/2512 14007KT 8000 -SHRA FEW010 SCT020 BKN030 TEMPO 2409/2415 4000 -TSRA BR FEW010 SCT020 BKN030 FEW030CB BECMG 2415/2417 32004KT TEMPO 2415/2421 4000 -SHRA BR FEW003 BKN005 BKN008 BECMG 2421/2500 15011KT TEMPO 2421/2506 4000 -TSRA BR FEW010 SCT020 BKN030 FEW030CB
