FTKN61 HKJK 241700
TAF HKNW 241700Z 2418/2518 VRB02KT 9999 BKN020 BECMG 2420/2423 VRB02KT BKN017 BECMG 2508/2511 12010KT BKN024
