FTKO32 RKSI 240038 AAA
TAF AMD RKSM 240038Z 2400/2506 24006KT 4800 -RA BR BKN015 BKN030 BECMG 2401/2402 24006KT 9999 NSW BKN015 BKN030 BECMG 2405/2406 24006KT 4800 -RA BR BKN015 BKN030 TX31/2406Z TN23/2421Z
