FTKR51 RJTD 240430
TAF ZKPY 240440Z 2406/2506 18003MPS 9999 OVC017 TX29/2406Z TN25/2421Z TEMPO 2406/2410 2000 -SHRA FEW017CB BKN020
