FTKY31 UUUJ 241100
TAF UCFO 241043Z 2412/2512 17005MPS 9999 FEW050CB TEMPO 2412/2418 VRB12G17MPS 2000 TSRAGR SQ SCT008 BKN030CB PROB40 TEMPO 2418/2502 VRB12MPS 2000 TSRA BKN030CB BECMG 2502/2504 31005MPS
