FTLB31 OLBA 241000
TAF OLBA 241000Z 2412/2518 24015KT 8000 FEW030 TEMPO 2412/2418 7000 SCT026 BECMG 2420/2422 17005KT NSC BECMG 2506/2509 23014KT FEW028
