FTLT33 EYVI 241100
TAF EYPA 241101Z 2412/2512 VRB05KT 9000 NSC BECMG 2420/2422 5000 BR BKN005 TEMPO 2422/2506 0600 FG VV002 BECMG 2506/2507 31010KT 9000 NSW SCT015
