FTLV35 EVRA 241700
TAF EVGA 241704Z 2418/2518 27005KT 9999 SCT030 TEMPO 2418/2419 4000 -TSRA SCT010 BKN020CB TEMPO 2419/2421 SCT030CB PROB40 TEMPO 2500/2504 3000 BR MIFG SCT002 TEMPO 2506/2512 SCT020CB PROB40 TEMPO 2507/2510 4000 -TSRA TEMPO 2515/2518 4000 -TSRA BKN030CB
