FTLV31 EVRA 241700
TAF EVRA 241701Z 2418/2518 VRB02KT 9999 SCT030 TEMPO 2418/2420 BKN030CB TEMPO 2422/2502 3000 BR PROB40 TEMPO 2423/2502 0700 FG BKN002 TEMPO 2502/2512 4000 -SHRA BKN008 BKN020CB PROB40 TEMPO 2502/2506 TS
