FTMA31 FIMP 241110
TAF FIMP 241105Z 2412/2518 09010KT 9999 SCT017 TEMPO 2420/2504 VRB03KT 7000 -SHRA BKN016
