FTMC32 GMMC 241700 RRB
TAF GMFK 241700Z 2418/2524 18011KT 9999 SCT033 FEW036CB SCT100 BECMG 2419/2421 36022KT BECMG 2500/2502 FEW033 SCT100 BECMG 2500/2502 30008KT
