FTMC31 GMMC 241100 RRB
TAF GMFF 241100Z 2412/2518 04006KT CAVOK BECMG 2414/2416 32012KT 9999 FEW030 SCT200 BECMG 2420/2422 20006KT CAVOK BECMG 2512/2514 34012KT SCT030
