FTMG25 FMMI 240500
TAF FMMS 240500Z 2406/2506 17008KT 9999 SCT017 BKN040 PROB30 TEMPO 2408/2418 4500 SHRA PROB30 TEMPO 2502/2506 4500 SHRA
