FTMJ31 LWSK 240800
TAF LWSK 240835Z 2409/2509 VRB02KT 9999 FEW050 SCT100 PROB40 TEMPO 2412/2415 VRB15KT TSRA FEW040CB SCT040 TEMPO 2415/2422 VRB20KT TSRA FEW033CB BKN040
