FTMM31 KWBC 240124
TAF LCRA 240120Z 2403/2421 27010KT CAVOK TEMPO 2411/2417 26016G26KT
