FTMR20 TFFF 240500
TAF TFFF 240400Z 2406/2506 10005KT 9999 SCT025 TEMPO 2406/2412 3000 SHRA BKN010CB BKN015TCU BECMG 2412/2414 11015KT PROB40 TEMPO 2415/2421 11015G25KT TEMPO 2500/2506 3000 SHRA BKN010CB BKN015TCU BKN020
