FTNC20 NWCC 241100
TAF NWWW 241100Z 2412/2512 VRB02KT 9999 FEW035 SCT060 TEMPO 2412/2421 3000 +SHRA BKN012 SCT020TCU PROB30 TEMPO 2414/2420 0900 FG VV/// BECMG 2421/2423 13012G25KT PROB40 TEMPO 2421/2506 SHRA FEW025TCU BECMG 2507/2509 VRB02KT
