FTNK31 MNMG 241530
TAF MNMG 241530Z 2418/2518 09012KT 9999 FEW024 SCT070 PROB30 TEMPO 2420/2502 11008G28KT 7000 RA TSRA FEW020CB SCT022 TEMPO 2504/2512 12004KT 9999 SCT020
