FTNL31 KWBC 242327
TAF EHAM 242321Z 2500/2606 16006KT CAVOK BECMG 2508/2511 21012KT BECMG 2514/2517 19007KT PROB30 2514/2518 BKN018 BECMG 2523/2602 -RA BKN012 TEMPO 2600/2604 4000 RA BECMG 2602/2604 6000 -RADZ BKN006 BECMG 2603/2606 25010KT TEMPO 2604/2606 2500 DZRA
