FTNO38 ENMI 242300
TAF ENGC 242300Z 2500/2524 34008KT 9999 FEW015 PROB30 2500/2504 0100 FG VV001 BECMG 2501/2503 19010KT BECMG 2506/2508 16020KT BECMG 2512/2515 15030KT BKN012 TEMPO 2514/2524 4000 DZRA BR BKN006 PROB40 2515/2521 0100 FG VV001 BECMG 2516/2518 18020KT
