FTNU50 TNCA 241800
TAF TNCA 241715Z 2418/2518 09023KT 9999 SCT020
