FTNZ31 NZKL 242300
TAF NZAA 242312Z 2500/2606 22010KT 9999 SCT020 BKN030 TEMPO 2500/2508 4000 SHRA BECMG 2512/2514 16005KT FM260000 22010KT CAVOK
