FTOS32 LOWM 240500
TAF LOWI 240515Z 2406/2506 VRB04KT 9999 FEW030 BKN080 TX24/2414Z TN14/2504Z TEMPO 2406/2408 -SHRA BKN012 BECMG 2408/2410 09008KT TEMPO 2408/2414 32010KT -SHRA BECMG 2420/2422 VRB03KT
