FTOS31 LOWM 240800 AAB
TAF AMD LOWW 241035Z 2410/2515 30012KT 9999 FEW050 TX27/2414Z TN18/2504Z TEMPO 2410/2415 29020G30KT 2000 +SHRA FEW050CB PROB30 TEMPO 2415/2417 SHRA TEMPO 2421/2504 32006KT TEMPO 2507/2515 34010G20KT
