FTPA32 KWBC 241736
TAF NWWW 241700Z 2418/2518 VRB02KT 9999 FEW035 SCT060 TEMPO 2418/2421 3000 +SHRA BKN012 SCT020TCU BECMG 2422/2424 13012G25KT PROB40 TEMPO 2421/2506 SHRA FEW025TCU BECMG 2507/2509 VRB02KT
