FTPF21 NTAA 241700
TAF NTAA 241700Z 2418/2524 VRB05KT 9999 FEW025 TEMPO 2421/2503 23010KT PROB40 TEMPO 2522/2524 05012KT
