FTPH31 RPLL 242300
TAF RPLL 242300Z 2500/2606 24010KT 9000 SCT025 BKN100 TX32/2505Z TN27/2520Z TEMPO 2500/2503 26013G23KT -RA SCT023 OVC090 TEMPO 2503/2509 26015G27KT 5000 RA SCT023 OVC090 BECMG 2513/2515 23007KT 9999 FEW025 BKN100
