FTPL32 EPWA 240500
TAF EPKT 240530Z 2406/2506 09006KT 9999 BKN050 BECMG 2406/2409 31010KT TEMPO 2406/2421 VRB15G25KT 2500 TSRA BKN012 BKN020CB PROB30 TEMPO 2406/2412 VRB20G35KT 1000 +TSRA BKN007 BKN012CB BECMG 2421/2423 2000 BR BKN007 TEMPO 2423/2504 0500 FG BKN003
