FTPM31 MPTO 241730
TAF MPPA 241730Z 2418/2524 33005KT 9999 SCT018 PROB40 TEMPO 2420/2424 18006KT 5000 TSRA SCT015CB BKN090 TEMPO 2501/2504 00000KT NSW TEMPO 2504/2508 VRB02KT TEMPO 2510/2514 01003KT
