FTPO35 LPMG 241100
TAF LPBJ 241103Z 2412/2512 32005KT CAVOK BECMG 2412/2415 32010KT PROB40 TEMPO 2416/2419 33012G25KT BECMG 2422/2424 VRB02KT PROB30 2505/2508 3000 BCFG BKN004
