FTPO61 LPAM 241700
TAF LPOV 241701Z 2418/2518 32007KT CAVOK PROB30 TEMPO 2418/2424 3000 BR SCT003 BECMG 2500/2503 VRB02KT 3000 BR SCT003 PROB40 2500/2508 0500 FG BKN001 BECMG 2508/2511 34010KT 9999 NSW SCT015 BECMG 2512/2514 34015KT CAVOK
