FTPO33 LPMG 242300
TAF LPPR 242300Z 2500/2524 VRB02KT 9999 SCT008 BECMG 2500/2501 5000 BR SCT004 BKN008 TEMPO 2501/2508 3000 BR SCT002 BKN004 PROB30 TEMPO 2502/2508 1200 PRFG BR SCT000 BKN002 BECMG 2510/2513 31015KT CAVOK TEMPO 2514/2520 31015G25KT BECMG 2520/2522 35008KT
