FTPO34 LPMG 241700
TAF LPAZ 241700Z 2418/2524 02010KT 9999 FEW012 SCT035 TEMPO 2418/2524 SCT020 PROB30 TEMPO 2418/2509 SCT006 BKN012 BECMG 2515/2518 35007KT
