FTPR83 SPIM 242300
TAF SPTN 242300Z 2500/2524 VRB04KT 9000 BKN020 TX21/2518Z TN10/2510Z BECMG 2508/2510 4000 BR BKN010 BECMG 2512/2514 8000 NSW SCT030 FM251500 22007KT CAVOK
