FTPR00 SPIM 241601 AAA
TAF AMD SPSO 241600Z 2416/2512 31006KT 7000 OVC017 TX20/2420Z TN14/2511Z TEMPO 2416/2418 OVC014 BECMG 2418/2421 23013KT BECMG 2500/2502 23003KT BECMG 2504/2506 08010KT OVC012
