FTPR84 SPIM 241700
TAF COR SPRU 241700Z 2418/2518 16011KT 8000 BKN017 TX19/2419Z TN16/2511Z BECMG 2423/2501 VRB05KT 4500 BR OVC014 TEMPO 2511/2513 OVC007 BECMG 2514/2517 18010KT 7000 NSW BKN020
