FTRA35 UUUJ 241100
TAF UHWW 241100Z 2412/2512 34003MPS 9999 BKN030 BECMG 2413/2415 -SHRA BKN020CB TEMPO 2415/2423 VRB01MPS 0300 FG BKN002 BKN016CB BECMG 2503/2506 18003G08MPS BKN016CB
