FTRA34 UUUJ 242300
TAF UNNT 242300Z 2500/2524 25003G08MPS 8000 BKN040CB TX28/2509Z TN17/2522Z TEMPO 2500/2506 18005G16MPS -TSRA BKN016CB TEMPO 2506/2524 31006G18MPS -TSRA BKN016CB
