FTRA36 UUUJ 242000
TAF USNN 241945Z 2421/2521 04005G11MPS 6000 -RA SCT010 BKN016 TEMPO 2421/2506 VRB18MPS 1000 TSRA SQ BKN004 BKN010CB BECMG 2509/2510 9999 NSW BKN016CB BECMG 2512/2514 30003G08MPS
