FTRA33 UUUJ 241400
TAF UIII 241400Z 2415/2515 33003MPS 9999 BKN040CB TEMPO 2415/2418 0500 FG VV001 BECMG 2418/2420 0500 FG VV001 TEMPO 2420/2501 2000 BR SCT004 BECMG 2501/2503 9999 NSW SCT040CB
