FTRE31 FMEE 242300 AAA
TAF AMD FMEE 242359Z 2500/2606 13008KT 9999 FEW030 BECMG 2507/2509 07014KT BECMG 2512/2514 14010KT
