FTRH32 LDZM 241100
TAF LDOS 241125Z 2412/2512 34006KT CAVOK TX31/2413Z TN18/2504Z PROB30 TEMPO 2412/2416 32015G30KT TSRA FEW040CB BECMG 2420/2422 32008KT BECMG 2509/2511 02008KT
