FTRM31 LUKK 241100
TAF LUKK 241120Z 2412/2512 VRB06KT 9999 SCT045 FEW050CB TEMPO 2412/2421 VRB18G28KT 2000 TSRA SCT015 BKN030CB TEMPO 2421/2509 4000 SHRA BKN040CB TEMPO 2509/2512 VRB18G28KT 2000 TSRA SCT015 BKN030CB
