FTRS35 UUUJ 241700
TAF UWOO 241653Z 2418/2518 07007G14MPS 6000 -SHRA BKN016CB TX20/2510Z TN15/2501Z TEMPO 2418/2509 04009G19MPS 1500 TSRA BR BKN005 BKN010CB TEMPO 2509/2515 01010G19MPS BKN020CB BECMG 2515/2517 33008G17MPS
