FTRS34 UUUJ 242000
TAF USPP 241953Z 2421/2521 07003G12MPS 6000 BKN016CB TEMPO 2421/2502 0500 -SHRA FG BKN003 BKN011CB BECMG 2502/2504 9999 TEMPO 2505/2521 -TSRA
