FTRS37 UUUJ 240800
TAF URFF 240750Z 2409/2509 02006G12MPS 9999 SCT030CB TX31/2411Z TN18/2503Z PROB40 TEMPO 2409/2418 -TSRA BECMG 2416/2418 12003MPS
