FTSA31 KWBC 241736
TAF SOCA 241700Z 2418/2518 10010KT 9999 BKN030 TEMPO 2418/2421 2000 SHRA SCT012CB BKN015TCU PROB30 TEMPO 2418/2421 VRB10G20KT 1400 TSRA SCT008 BKN012CB BECMG 2421/2423 VRB03KT PROB30 2503/2509 3000 BR BKN003 PROB30 2509/2512 4000 SHRA BKN015TCU BECMG 2513/2515 09010KT PROB40 2515/2518 4000 SHRA BKN015TCU PROB30 TEMPO 2516/2518 1400 TSRA BKN012CB
