FTSA42 KWBC 242324
TAF SUDU 242330Z 2500/2524 33005KT 9999 FEW020 BKN080 TX16/2518Z TN10/2511Z TEMPO 2500/2506 VRB15G25KT 3000 TSRA BR BKN015 FEW040CB BKN060 BECMG 2506/2509 26010KT
