FTSA85 EGRR 242333 RRE
TAF SOCA 242300Z 2500/2524 VRB03KT 9999 SCT030 PROB30 2503/2509 3000 BR BKN003 PROB30 TEMPO 2509/2515 4000 SHRA BKN015TCU BECMG 2513/2515 09010KT TEMPO 2515/2522 2500 SHRA SCT012CB BKN015TCU PROB30 TEMPO 2515/2520 1400 TSRA SCT008 BKN012CB BECMG 2521/2523 VRB02KT
