FTSA32 KWBC 241024
TAF SCEL 241000Z 2412/2512 05004KT 2000 BR NSC TX18/2419Z TN04/2510Z TEMPO 2412/2414 VRB02KT 0800 BCFG BECMG 2414/2415 5000 HZ BECMG 2415/2417 22007KT CAVOK BECMG 2502/2504 15004KT
