FTSA41 KWBC 241124
TAF SEMT 241120Z 2412/2512 20006KT 9999 BKN023 BECMG 2414/2416 27010KT SCT023 BECMG 2423/2424 21008KT BECMG 2501/2503 OVC020 TX27/2420Z TN20/2510Z
