FTSC20 FSIA 242306
TAF FSIA 242306Z 2500/2524 13012G25KT 9999 SCT020
