FTSD40 OEJD 242300
TAF OEBA 242300Z 2500/2606 30008KT 6000 FEW030 PROB30 TEMPO 2500/2506 3000 DU BECMG 2504/2506 32018KT TEMPO 2508/2516 4000 BLDU TSRA SCT030 FEW035CB BECMG 2520/2522 28008KT
