FTSG31 GOOY 242330
TAF GBYD 242300Z 2500/2606 23005KT 9999 TS BKN010 FEW018CB TEMPO 2500/2506 3000 TSRA TEMPO 2506/2512 4000 TSRA BECMG 2512/2514 NSW SCT010
