FTSL31 GFLL 241100
TAF GFLL 241100Z 2412/2518 12005KT 7000 DZ BKN010 FEW027CB BECMG 2412/2414 24008KT 6000 RA BKN011 TEMPO 2416/2420 27014KT 4000 RA DZ TEMPO 2419/2423 21006KT 8000 BKN009
