FTSN31 KWBC 240833
TAF ESMS 240812Z 2409/2509 29007KT 9999 SCT015 TEMPO 2409/2411 BKN013 FEW020CB TEMPO 2411/2418 FEW020CB TEMPO 2500/2505 4000 BR BKN010 TEMPO 2505/2507 BKN010
