FTSP32 LEMM 241100
TAF LEVC 241100Z 2412/2512 07009KT CAVOK TX36/2413Z TN23/2505Z PROB40 TEMPO 2417/2419 05015G25KT BECMG 2422/2424 VRB04KT TEMPO 2504/2506 BKN015 BECMG 2508/2510 07009KT
