FTSP37 LEMM 242000
TAF LEVD 242000Z 2421/2521 04015KT CAVOK TX38/2515Z TN18/2506Z PROB40 TEMPO 2421/2503 06015G25KT BECMG 2507/2509 VRB03KT BECMG 2518/2520 06025KT
