FTSP35 LEMM 241100
TAF LETL 241100Z 2412/2512 08007KT CAVOK TX39/2415Z TN17/2505Z TEMPO 2418/2420 14014KT BECMG 2420/2422 VRB04KT BECMG 2504/2506 30007KT BECMG 2508/2510 09009KT
