FTSP38 LEMM 241100
TAF LETO 241100Z 2412/2512 VRB05KT CAVOK TX40/2415Z TN24/2506Z TEMPO 2412/2422 24010KT BECMG 2423/2501 02010KT BECMG 2506/2508 VRB05KT
