FTSP36 LEMM 240800
TAF LEDA 240800Z 2409/2509 VRB04KT CAVOK TX40/2415Z TN22/2505Z BECMG 2413/2415 26007KT PROB40 TEMPO 2418/2420 18015G25KT BECMG 2420/2422 10008KT PROB30 TEMPO 2422/2501 09015G25KT BECMG 2504/2506 VRB05KT
