FTSP40 LEMM 242000
TAF LEBR 242000Z 2421/2521 31009KT CAVOK TX36/2516Z TN19/2505Z PROB40 TEMPO 2421/2503 32019KT PROB40 TEMPO 2517/2521 32019KT
