FTSQ31 LZIB 241700
TAF LZTT 241715Z 2418/2518 24004KT 9999 FEW020 TEMPO 2418/2420 30015G25KT -TSRA SCT028CB BKN040 BECMG 2418/2420 VRB02KT BECMG 2509/2511 05011KT TEMPO 2510/2516 -SHRA FEW025TCU SCT030
