FTSR33 WSSS 241100
TAF WBSB 241100Z 2412/2518 22004KT 9999 FEW014 BECMG 2503/2505 28010KT FEW015 FEW016CB
