FTSR32 WSSS 242300
TAF WMKP 242300Z 2500/2600 VRB03KT 5000 HZ FEW020 BECMG 2503/2505 22008KT 5000 BECMG 2512/2513 VRB03KT 7000 NSW FEW025
