FTSW39 LSSW 241600
TAF LSMM 241625Z 2417/2523 07010KT 9999 FEW080 BECMG 2500/2503 VRB02KT CAVOK BECMG 2507/2510 06010KT 9999 FEW060 BECMG 2517/2520 VRB02KT CAVOK
