FTTA31 UUUJ 241100
TAF UTDL 241100Z 2412/2512 VRB02MPS 9999 SCT080 TEMPO 2412/2418 24005MPS BECMG 2500/2502 08006MPS TEMPO 2510/2512 VRB02MPS
