FTTH31 VTBB 241100
TAF VTBO 241100Z 2412/2512 23008KT 9000 FEW020 SCT080 TEMPO 2412/2416 VRB20KT 3000 TSRA FEW018CB SCT030 BKN080 TEMPO 2421/2501 VRB15KT 4000 TSRA FEW018CB SCT035 BKN080
