FTTN32 HTDA 241100
TAF HTZA 241100Z 2412/2512 14015KT 9999 SCT020 BECMG 2418/2420 15005KT BECMG 2502/2504 21010KT BECMG 2509/2511 14015KT
