FTTN41 KWBC 240524
TAF HTBU 240500Z 2406/2506 00000KT 9999 FEW016 FEW018CB SCT080 BECMG 2409/2413 12010KT
