FTTU32 LTAA 240500
TAF LTCG 240440Z 2406/2506 21008KT 9999 SCT035 BECMG 2406/2409 30012KT SCT016 BKN033 TEMPO 2407/2411 -TSRA SCT008 FEW018CB BKN026 TEMPO 2411/2415 -TSRA SCT016 FEW022CB BKN028 BECMG 2415/2418 22007KT TEMPO 2418/2422 30012KT -SHRA SCT012 FEW020CB BKN028
