FTTU31 LTAA 242300
TAF LTFM 242240Z 2500/2606 05007KT 9999 SCT025 BECMG 2504/2508 03017KT PROB40 TEMPO 2506/2510 -SHRA FEW018TCU BKN022 BECMG 2517/2520 03007KT -SHRA FEW018TCU BKN022 TEMPO 2521/2601 33017G27KT -TSRA FEW008 FEW018CB BKN022 TEMPO 2602/2606 33018G34KT 4000 TSRA FEW008 FEW018CB BKN022
