FTTU34 LTAA 242300
TAF LCEN 242240Z 2500/2524 29012KT 9999 FEW020 PROB30 TEMPO 2500/2504 VRB02KT 2000 BR BKN005
