FTTU33 LTAA 240500
TAF LTAG 240440Z 2406/2506 VRB02KT 9999 SCT035 BECMG 2410/2412 21012KT TEMPO 2412/2416 -TSRA FEW025CB BKN030 BECMG 2416/2417 VRB02KT PROB30 TEMPO 2416/2419 -TSRA FEW025CB BKN030
