FTTU21 LTAA 240500
TAF LTFM 240440Z 2406/2512 05015KT 9999 SCT022 TEMPO 2406/2408 03018G28KT -SHRA FEW018TCU BKN022 BECMG 2410/2413 CAVOK BECMG 2419/2423 06005KT BECMG 2500/2503 SCT035 BKN100 BECMG 2503/2506 04015G25KT
