FTUK32 KWBC 241303 AAA
TAF AMD EGNM 241300Z 2413/2512 21008KT 9999 FEW018 SCT040 PROB30 TEMPO 2413/2420 9000 -SHRA PROB30 TEMPO 2420/2424 8000 -RADZ BKN012 TEMPO 2500/2509 7000 -RADZ BKN006 PROB30 TEMPO 2500/2506 3000 RADZ BR BKN004 PROB30 TEMPO 2509/2512 7000 -RADZ BKN012
