FTUK33 EGGY 240500 AAD
TAF AMD EGBB 240741Z 2407/2506 15005KT 9999 FEW040 BECMG 2407/2410 21010KT TEMPO 2407/2410 BKN010 PROB30 TEMPO 2407/2410 9000 BKN006 PROB30 TEMPO 2416/2420 7000 SHRA PROB30 TEMPO 2420/2422 8000 -RA BKN014 BECMG 2422/2501 BKN012 TEMPO 2422/2501 6000 RA -RADZ PROB40 TEMPO 2501/2506 4000 -DZ BR BKN006
