FTUK34 EGGY 240500
TAF EGAA 240457Z 2406/2506 11003KT 9999 BKN035 PROB30 TEMPO 2406/2414 7000 RA BKN012 BECMG 2412/2415 18010KT BECMG 2414/2416 BKN012 TEMPO 2414/2420 4000 RADZ TEMPO 2416/2420 BKN008 PROB30 TEMPO 2418/2420 BKN004 BECMG 2420/2423 BKN035 BECMG 2421/2424 24010KT PROB30 TEMPO 2423/2506 BKN012
