FTUK52 EGRR 241100
TAF EGVO 241041Z 2412/2424 23010KT 9999 SCT030 PROB30 TEMPO 2419/2421 7000 SHRA SCT012 BECMG 2421/2424 BKN008
