FTUY03 SUMU 241130
TAF SUCA 241130Z 2412/2512 35010KT CAVOK TX22/2418Z TN10/2511Z TEMPO 2415/2424 3000 RA BKN015 BKN070 PROB40 TEMPO 2416/2423 VRB15G25KT 3000 TSRA BKN015 FEW040CB BKN070 BECMG 2503/2506 28010KT
