FTUY04 SUMU 241730
TAF SURV 241730Z 2418/2518 02010KT CAVOK TX22/2518Z TN15/2511Z TEMPO 2423/2509 VRB15G25KT 3000 TSRA BR BKN010 FEW040CB BKN070 BECMG 2508/2511 22005KT
