FTVN20 SVMI 242200
TAF SVJC 242200Z 2500/2600 14006KT 9000 DZ SCT016 BKN070 TX29/2419Z TN25/2508Z TEMPO 2503/2505 11005KT 9000 -DZ BKN010 BKN016
