FTXX90 KWBC 240530
TAF RJFR 240510Z 2406/2512 09011KT 9999 FEW020 BKN040 BECMG 2407/2409 06008KT BECMG 2418/2421 10010KT TEMPO 2503/2509 -TSRA FEW010 SCT020 BKN030 FEW030CB
