FTYG31 LYYN 240500
TAF LYNI 240500Z 2406/2506 04004KT CAVOK TX28/2410Z TN20/2503Z BECMG 2408/2410 32014KT TEMPO 2410/2417 32024KT 3000 TSRA SCT030CB BKN040 BECMG 2417/2419 32004KT PROB40 TEMPO 2421/2503 4000 SHRA SCT030TCU SCT035
