FTZA43 FABL 240400
TAF FABL 240400Z 2406/2506 VRB03KT CAVOK TX18/2412Z TNM04/2504Z BECMG 2410/2412 25010KT BECMG 2421/2423 VRB03KT
