FTZB40 FLKK 240900
TAF FLSW 241000Z 2412/2518 13010KT 7000 FU NSC FM241700 08005KT CAVOK BECMG 2504/2506 09005KT 8000 FU NSC BECMG 2508/2510 11010G15KT
