FTZR31 FZAA 240500 RRA
TAF FZIC 240500Z 2406/2512 18006KT 6000 FEW010 BECMG 2408/2410 SCT022 FEW030CB TEMPO 2412/2416 TS BECMG 2416/2418 00000KT NSC BECMG 2500/2502 1500 BR BKN002 FM250700 21006KT 6000 SCT010
