FTZW20 FVRG 240400
TAF FVRG 240400Z 2406/2512 06009KT CAVOK BECMG 2410/2412 17005KT
