FTAB31 LATI 241100
TAF LATI 241100Z 2412/2512 VRB03KT 9999 FEW050 TX36/2412Z TN19/2503Z TEMPO 2412/2418 VRB14KT FEW040CB SCT090 PROB40 TEMPO 2414/2418 TS
