FTAF33 OEJD 240500
TAF DNBE 240500Z 2406/2512 VRB02KT 8000 SCT008 TEMPO 2406/2408 3000 BR BECMG 2408/2410 22010KT BKN010 TEMPO 2413/2417 5000 -TSRA BKN009 FEW019CB BECMG 2418/2420 VRB02KT SCT009 TEMPO 2505/2508 3000 BR BECMG 2508/2510 21010KT BKN010
