FTAF34 KWBC 241024
TAF FALA 241000Z 2412/2512 23008KT CAVOK TX26/2413Z TN04/2504Z BECMG 2416/2418 VRB03KT
