FTAF31 KWBC 241121
TAF DXNG 241100Z 2412/2512 24008KT 9999 BKN006 BECMG 2414/2416 SCT006 PROB30 TEMPO 2416/2420 TS PROB30 TEMPO 2422/2504 4000 TSRA BKN005 FEW016CB
