FTAG41 KWBC 240533
TAF SAVC 240500Z 2406/2506 27010KT CAVOK TX14/2418Z TN09/2412Z TEMPO 2408/2411 8000 -RA BKN045 BECMG 2410/2412 VRB03KT 9999 SCT035 BKN050 BECMG 2416/2418 36010KT CAVOK BECMG 2501/2503 32020G30KT
