FTAL31 KWBC 242333
TAF DAAT 242300Z 2500/2524 06006KT 8000 SCT046 BECMG 2503/2506 10010KT BECMG 2510/2512 18010KT PROB30 TEMPO 2515/2518 FEW040CB SCT046TCU BECMG 2518/2521 02006KT
