FTAO35 GOOY 241700
TAF GAGO 241700Z 2418/2518 24012G22KT 6000 FEW030 PROB40 TEMPO 2418/2421 VRB18G30KT 3000 TSRA BLDU SCT030 FEW040CB TEMPO 2421/2502 10020G35KT 1500 TSRA BLDU BKN030 FEW040CB PROB40 TEMPO 2502/2508 4500 TS SHRA BKN030 FEW040CB PROB40 TEMPO 2514/2518 TS SCT030 FEW040CB
