FTAO33 KWBC 240524
TAF GUCY 240500Z 2406/2512 26008KT 8000 -RA BKN013 BKN110 TEMPO 2406/2412 12006KT 8000 -RA BKN012 BKN100 PROB30 TEMPO 2418/2424 18012KT 6000 -TSRA BKN012 FEW023CB OVC100
