FTAO31 KWBC 240948 AAA
TAF AMD GCRR 240939Z 2409/2509 20015KT CAVOK TX32/2414Z TN22/2506Z PROB40 2410/2418 36010KT PROB30 TEMPO 2410/2418 20015G25KT BECMG 2417/2421 36020KT TEMPO 2422/2508 35021G31KT
