FTAP39 FAPR 241700
TAF FAPE 241600Z 2418/2518 21014KT 9999 SCT025 TX19/2510Z TN12/2503Z PROB40 TEMPO 2418/2504 4000 SHRA BKN018 SCT045TCU PROB30 TEMPO 2418/2424 2500 +SHRA SCT045TCU BECMG 2421/2423 VRB03KT BECMG 2512/2514 07012KT CAVOK
