FTAS31 KWBC 241200
TAF VAAH 241100Z 2412/2518 21010KT 3000 RA HZ SCT015 SCT020 FEW025TCU OVC080 TEMPO 2412/2418 20010G20KT 1500 -TSRA SCT012 SCT018 FEW030CB OVC070 BECMG 2413/2415 -RA HZ BECMG 2418/2420 23008KT DZ HZ BECMG 2422/2424 27008KT -RA HZ BECMG 2501/2503 23010KT 2000 -RA BR BECMG 2504/2506 3000 DZ HZ SCT012 SCT020 FEW025TCU OVC080 BECMG 2507/2509 4000 -DZ HZ TEMPO 2508/2516 22010G20KT 2000 -TSRA SCT012 SCT018 FEW030CB OVC080 BECMG 2510/2510 21006KT DZ HZ BECMG 2513/2515 3000 -RA HZ BECMG 2516/2518 23010KT
