FTAT31 TAPA 242300
TAF TKPK 242322Z 2500/2524 05014KT 9999 SCT020 PROB30 TEMPO 2502/2512 SHRA
