FTAU32 YBBN 242200
TAF AMD YMLT 242254Z 2423/2600 33022G32KT 9999 -RA BKN010 FM250100 33015G25KT 9999 -RA SCT010 BKN020 FM250200 33012KT 9999 NSW SCT030 FM250800 34014KT 9999 BKN030 FM251300 33012KT 9999 -RA SCT012 BKN020 FM251600 34008KT 9999 NSW FEW015 TEMPO 2423/2501 4000 RA BKN006 TEMPO 2513/2516 34020G30KT 4000 RA BKN008
