FTAU33 YBBN 241100
TAF AMD YPWR 241146Z 2412/2506 23012KT CAVOK FM241400 22010KT 9999 SCT020 FM241700 20008KT 9999 -RA SCT010 BKN020 FM242000 24008KT 9999 NSW SCT010 FM250000 24009KT 9999 SCT020 FM250100 23012KT CAVOK TEMPO 2417/2420 6000 RA BKN010 TEMPO 2420/2500 9999 BKN010
