FTAW34 KWBC 241721 RRA
TAF UATT 241700Z 2418/2518 10005MPS 3100 -SHRA BKN015CB TX23/2510Z TN18/2501Z TEMPO 2418/2424 13010MPS -TSRA BECMG 2500/2502 16002MPS TEMPO 2500/2506 20007MPS BKN011 BKN015CB TEMPO 2506/2512 27015MPS -TSRA BECMG 2512/2514 30005MPS
