FTBC20 FBSK 242200
TAF FBPM 242200Z 2500/2524 26005KT CAVOK BECMG 2501/2503 VRB02KT BECMG 2507/2509 15005KT BECMG 2519/2521 VRB02KT
