FTBU31 LBSM 241100
TAF LBBG 241100Z 2412/2512 12012KT 9999 SCT040 PROB40 TEMPO 2412/2418 VRB16G26KT 5000 TSRA FEW030CB BKN040 BECMG 2418/2419 VRB04KT BECMG 2423/2501 35010KT PROB30 TEMPO 2501/2506 5000 TSRA FEW030CB BKN045 TEMPO 2507/2512 VRB18G28KT 3000 TSRA FEW020 SCT030CB BKN040
