FTCA35 KWBC 241127
TAF COR MSLP 241100Z 2412/2512 04006KT CAVOK TX34/2418Z TN24/2510Z FM241700 20008KT 9999 FEW025 FEW037CB FM250000 VRB03KT 9999 FEW023 FEW037CB TEMPO 2504/2506 06008KT 6000 TSRA SCT023 SCT030CB BKN060 FM250600 05006KT 9999 FEW023 SCT067
