FTCA31 TTPP 240400
TAF TTCP 240400Z 2406/2506 08005KT 9999 SCT016 TEMPO 2406/2415 5000 SHRA FEW012CB BKN016 PROB30 TEMPO 2406/2410 3000 TSRA FEW010CB BKN015 BECMG 2415/2416 10012KT 9999 SCT018 BECMG 2500/2502 08005KT 9999 FEW016
