FTCA33 KWBC 242342
TAF TFFF 242300Z 2500/2524 10005KT 9999 SCT030 TEMPO 2501/2506 3000 SHRA SCT015CB BKN020TCU PROB30 TEMPO 2506/2512 4000 SHRA BKN020TCU BECMG 2510/2512 11015KT TEMPO 2512/2517 10015G25KT 3000 SHRA SCT015CB BKN020TCU BECMG 2523/2524 10005KT
