FTCG20 FCBB 241719
TAF FCPP 241700Z 2418/2518 20004KT 8000 FEW010 BKN023 BECMG 2421/2423 4000 BR BECMG 2504/2506 7000 NSW PROB30 2513/2516 VRB10KT
