FTCH01 SCTE 242234
TAF SCQP 242234Z 2500/2524 36010KT 9999 BKN040 TN09/2512Z TX12/2518Z BECMG 2505/2507 8000 -RA OVC025 BECMG 2513/2515 22007KT 9999 NSW FEW040
