FTCI31 RCTP 240500
TAF RCKH 240500Z 2406/2512 27023G35KT 6000 -SHRA SCT008 BKN018 TEMPO 2406/2412 30028G45KT 2000 +SHRA SCT006 BKN012 FEW015CB TEMPO 2412/2418 24030G50KT 3000 SHRA SCT008 BKN012 FEW015CB BECMG 2418/2420 23020G35KT TEMPO 2418/2424 2000 +SHRA SCT006 BKN012 FEW015CB TEMPO 2500/2506 20015G30KT 2000 +SHRA SCT006 BKN012 FEW015CB TEMPO 2506/2512 20010KT 4000 SHRA SCT008 BKN012 FEW015CB
