FTCM20 FKKD 241100
TAF FKKD 241100Z 2412/2518 VRB03KT 4000 RADZ SCT004 BKN009 FEW013CB TEMPO 2412/2414 2000 RADZ BECMG 2414/2415 8000 NSW BKN013 FEW016CB TEMPO 2418/2424 2000 RADZ TEMPO 2504/2510 2000 BR
