FTCR31 LEMM 242000 AAB
TAF AMD GCRR 242241Z 2422/2521 35020KT 9999 FEW010 TX33/2514Z TN22/2506Z TEMPO 2422/2509 VRB06KT TEMPO 2422/2509 35010KT PROB30 TEMPO 2422/2511 35016G26KT TEMPO 2511/2521 35025G37KT
