FTCR32 LEMM 240800 AAC
TAF AMD GCFV 241017Z 2410/2509 04015KT CAVOK TX30/2414Z TN23/2506Z PROB40 2410/2418 30010KT TEMPO 2410/2413 18012KT PROB30 TEMPO 2410/2413 18015G25KT BECMG 2418/2420 34015KT
