FTCU31 MUHA 240500
TAF MUHA 240500Z 2406/2506 09005KT 9000 FEW025 BECMG 2411/2413 09010KT TEMPO 2418/2424 VRB15KT 4000 TSRA SCT018CB BKN020 BECMG 2501/2503 09005KT
