FTCY31 LCLK 240530
TAF LCLK 240530Z 2406/2506 28007KT 9999 FEW020 PROB30 TEMPO 2406/2408 5000 BR BKN005 BECMG 2407/2411 22022KT BECMG 2416/2420 25007KT PROB30 TEMPO 2423/2506 5000 BR BKN005
