FTDJ31 HDAM 241100
TAF HDAM 241100Z 2412/2512 32015G25KT 5000 BLDU FEW023 SCT133 BECMG 2415/2421 28010G20KT 7000 TSRA FEW020 FEW030CB BKN133 BECMG 2500/2506 VRB08KT 8000 HZ SCT020
