FTDL45 ETGT 240200
TAF ETNG 240200Z 2403/2418 30007KT 9999 BKN025 PROB40 TEMPO 2403/2408 4500 BR BKN008 BKN012 BECMG 2417/2418 VRB02KT CAVOK
