FTDL51 ETGT 240400
TAF ETNL 240404Z 2405/2417 30012G22KT 9999 NSW FEW020 SCT030 TEMPO 2405/2408 27007KT 6000 -SHRA BKN010 TEMPO 2408/2411 29010KT 8000 NSW BKN020 TEMPO 2411/2417 31015G25KT 9999 NSW FEW030
