FTDN33 EKCH 241400
TAF EKKA 241416Z 2415/2515 28012KT 9999 SCT030 TEMPO 2415/2416 29012G22KT BECMG 2422/2501 24005KT TEMPO 2500/2505 5000 BR MIFG
