FTDR31 MDSD 242200
TAF MDPP 242200Z 2500/2600 10010KT 9999 SCT018 PROB30 2502/2508 6000 RA SCT016 SCT070 BECMG 2502/2504 00000KT 

