FTEA32 HKNA 241700
TAF HKEL 241700Z 2418/2524 32006KT 9999 -TSRA FEW018CB BKN080 BECMG 2420/2423 VRB03KT NSW SCT018 BKN080 BECMG 2508/2511 31010KT BKN023 TEMPO 2513/2517 VRB10KT -TSRA FEW019CB SCT020 BKN080 BECMG 2520/2523 VRB03KT SCT018 BKN080
