FTEM31 KWBC 240827 AAA
TAF AMD LOWW 240823Z 2409/2515 30012KT 9999 FEW050 TX27/2414Z TN18/2504Z TEMPO 2409/2410 2000 +SHRA TEMPO 2409/2417 32015G25KT PROB40 TEMPO 2410/2417 SHRA TEMPO 2421/2504 32006KT TEMPO 2507/2515 34010G20KT
