FTEO31 EETN 241700
TAF EETN 241730Z 2418/2518 VRB02KT 9999 SCT040 TEMPO 2418/2421 SCT030CB PROB30 TEMPO 2418/2420 5000 SHRA PROB40 TEMPO 2420/2423 2000 BR BKN004 TEMPO 2423/2505 0500 FG VV002 TEMPO 2505/2507 BKN005 TEMPO 2507/2517 4000 SHRA BKN012 SCT030CB PROB40 TEMPO 2511/2515 TSRA
