FTEO33 EEEI 240500
TAF EEEI 240530Z 2406/2506 VRB02KT 9999 BKN040 TEMPO 2406/2410 4000 SHRA BKN009 SCT035CB TEMPO 2410/2418 3000 SHRA BKN015 SCT030CB PROB40 TEMPO 2410/2418 VRB15KT 2500 TSRA PROB40 TEMPO 2419/2423 2000 BR SCT005 TEMPO 2423/2505 0800 FG VV002
