FTEQ01 SEQU 240530
TAF SEQM 240525Z 2406/2506 VRB03KT 9999 SCT005 BKN070 BECMG 2412/2413 SCT030 SCT100 BECMG 2416/2418 36012KT TEMPO 2420/2422 17008G18KT BECMG 2423/2424 VRB03KT FEW005 SCT026 TX26/2419Z TN08/2411Z
