FTER21 OMAA 241100
TAF OMAA 241100Z 2412/2518 30012KT CAVOK BECMG 2415/2417 17005KT BECMG 2506/2508 30013KT BECMG 2515/2517 18005KT
