FTFJ31 NFFN 241700
TAF NFFN 241715Z 2418/2518 10008KT 9999 SCT025 BKN100 BECMG 2422/2424 30010KT PROB30 TEMPO 2503/2506 5000 TSRA FEW016CB BECMG 2504/2506 13005KT PROB40 TEMPO 2506/2512 5000 TSRA FEW016CB
