FTFR18 LFPW 240800
TAF LFBC 240800Z 2409/2509 04004KT 9999 OVC007 BECMG 2409/2410 BKN015 BECMG 2411/2413 31010KT BECMG 2422/2424 VRB02KT PROB30 TEMPO 2503/2507 0800 BCFG
