FTFR41 LFXV 240200
TAF LFSI 240200Z 2403/2503 VRB03KT CAVOK TEMPO 2403/2405 0600 BCFG BECMG 2405/2407 SCT005 BECMG 2407/2409 36010KT SCT020 BECMG 2420/2421 VRB03KT
