FTFR32 LFPW 242300 RRA
TAF LFBD 242300Z 2500/2606 VRB03KT CAVOK TX31/2514Z TN15/2605Z PROB40 TEMPO 2502/2507 3000 BR BKN004 PROB30 TEMPO 2504/2506 0400 FG VV/// BECMG 2514/2516 30010KT BECMG 2522/2524 VRB03KT PROB30 TEMPO 2604/2606 3000 BR BKN004
