FTFR33 LFPW 241100 RRA
TAF LFLX 241100Z 2412/2518 03005KT 9999 BKN040 BECMG 2412/2414 CAVOK BECMG 2422/2424 VRB02KT
