FTFR17 LFPW 240200 AAD
TAF AMD LFOE 240623Z 2406/2503 27003KT CAVOK TEMPO 2406/2408 4500 BR BKN002 PROB40 TEMPO 2406/2407 0500 FG VV///
