FTFR42 LFXV 240200
TAF LFOE 240200Z 2403/2503 30003KT CAVOK TEMPO 2404/2407 OVC003 PROB40 TEMPO 2404/2407 0400 FG VV/// BECMG 2409/2411 18010KT BECMG 2420/2421 01003KT
