FTFR15 LFPW 241100 RRA
TAF LFRL 241100Z 2412/2512 23005KT 9999 OVC020 BECMG 2500/2503 OVC008 BECMG 2504/2507 OVC005 TEMPO 2507/2512 4000 -RADZ BKN002 PROB40 TEMPO 2507/2512 2000 BR PROB30 TEMPO 2507/2512 0800 FG VV///
