FTFR43 LFXV 241400
TAF LFBC 241400Z 2415/2515 34010KT CAVOK BECMG 2423/2501 VRB03KT BECMG 2501/2503 3000 BR PROB40 2503/2506 0300 FG VV/// BECMG 2506/2508 CAVOK
