FTFR24 LFPW 242000 RRA
TAF LFMI 242000Z 2421/2521 35018G28KT CAVOK TX34/2514Z TN21/2505Z BECMG 2502/2504 35015KT BECMG 2509/2511 33005KT BECMG 2513/2515 19010KT
