FTGN20 GUCY 242305
TAF GUCY 242300Z 2500/2606 25006KT 8000 -RA BKN013 BKN100 TEMPO 2502/2508 08012KT 4000 TSRA BKN012 FEW020CB OVC090
