FTGO31 FOOL 242300 CCB
TAF COR FOOG 242300Z 2500/2524 20010KT 8000 SCT010 BKN026
