FTHU31 LHBM 240500
TAF LHBP 240515Z 2406/2506 30004KT CAVOK BECMG 2406/2409 31010KT BECMG 2409/2412 30015G25KT TEMPO 2409/2412 -SHRA FEW050TCU BKN060 TEMPO 2413/2416 31023G35KT FEW060TCU SCT080 BECMG 2416/2419 33010KT BECMG 2423/2502 32005KT
