FTID43 WAJJ 241700
TAF WAVV 241700Z 2418/2506 05001KT 2000 BR BKN003 BECMG 2423/2501 8000 NSW SCT016
