FTID32 WALL 242300
TAF WALL 242300Z 2500/2606 23007KT 5000 -RA FEW017CB SCT018 BECMG 2501/2503 9999 NSW SCT020
