FTIN31 VIDP 242300 RRA
TAF VIAR 242300Z 2500/2606 09003KT 1500 BR RA FEW030 SCT090 BECMG 2504/2506 04004KT 2500 BR SCT030 BKN090 BECMG 2508/2510 4000 BR FEW030 SCT090 BECMG 2515/2517 VRB02KT 3000 BR -RA SCT030 BKN090 TEMPO 2518/2522 08004KT 1500 -TSRA FEW035CB BECMG 2604/2606 2500 BR RA SCT030 BKN090
