FTIN32 VABB 242300
TAF VRMG 242300Z 2500/2606 11008KT 9999 FEW018TCU TEMPO 2500/2506 5000 SHRA FEW018CB
