FTIQ01 ORER 241700
TAF ORER 241700Z 2418/2518 22008KT 7000 NSC BECMG 2500/2502 10010KT BECMG 2508/2510 28010KT TEMPO 2510/2516 28010G25KT
