FTIR31 OIII 241700 RRA
TAF OITT 241730Z 2418/2524 08010KT 8000 FEW030 TEMPO 2418/2424 FEW030CB SCT035 TEMPO 2503/2509 09018G28KT FEW030CB SCT040 BKN070 TEMPO 2514/2524 09020KT PROB30 TEMPO 2518/2521 09020G30KT TSRA SCT025CB BKN070
