FTIR33 OIII 240500 RRA
TAF OIZC 240515Z 2406/2512 12008KT 5000 HZ FEW035 SCT100 TEMPO 2408/2416 24018KT 4000 SA FEW030CB SCT040 TEMPO 2500/2504 2000 BR SCT030 TEMPO 2509/2512 22016KT 4000 SA FEW035TCU SCT040
