FTIS32 LLBD 240500
TAF LLHZ 240502Z 2406/2506 21006KT 9999 SCT025 PROB40 TEMPO 2406/2407 VRB04KT BKN020 BECMG 2407/2409 27012KT SCT025 BECMG 2415/2417 VRB04KT PROB40 TEMPO 2422/2506 18005KT BKN020 TX31/2411Z TN25/2503Z
