FTIS31 LLBD 241100
TAF LLBG 241101Z 2412/2512 27012KT 9999 SCT030 BECMG 2415/2417 VRB04KT SCT025 PROB40 TEMPO 2423/2505 17005KT BKN020 BECMG 2507/2509 27012KT FEW030 TX33/2412Z TN25/2503Z
