FTIV20 DIAP 242331
TAF DIAP 242331Z 2500/2606 23005KT 7000 SCT010 PROB40 2500/2505 4000 BR FEW005 BKN010 PROB30 TEMPO 2501/2504 0500 FG PROB30 2505/2509 4000 BR BKN010 PROB30 TEMPO 2509/2513 4000 DZ FEW005 BKN010
