FTIY37 LIIB 241100
TAF LICB 241100Z 2412/2512 25012KT CAVOK BECMG 2419/2421 VRB05KT BECMG 2509/2511 25012KT
