FTIY32 KWBC 240521
TAF LIPZ 240500Z 2406/2512 02007KT 9999 SCT040 BECMG 2410/2412 12010KT BECMG 2418/2420 04012KT TEMPO 2422/2506 TSRA BECMG 2510/2512 12010KT
