FTIY36 LIIB 241100
TAF LIBF 241100Z 2412/2512 34016KT CAVOK TEMPO 2412/2416 34016G28KT BECMG 2416/2418 33013KT BECMG 2422/2424 VRB05KT BECMG 2506/2508 34015KT
