FTJD31 OJAM 241100
TAF OJAQ 241044Z 2412/2518 36010KT 6000 NSC PROB30 TEMPO 2412/2418 05018KT 4000 BLDU PROB40 2500/2506 18005KT
