FTJD20 OJAM 241700
TAF OJAM 241700Z 2418/2524 28010KT 5000 HZ FEW035 PROB40 TEMPO 2512/2518 29018KT 4000 BLDU
