FTJP41 KWBC 240530
TAF RJCK 240507Z 2406/2512 21007KT 9999 -SHRA FEW006 BKN030 BECMG 2406/2408 02010KT TEMPO 2406/2412 3000 SHRA BR FEW004 BKN006 FEW030CB TEMPO 2412/2415 2000 SHRA BR FEW003 BKN005 TEMPO 2415/2421 1500 BR FEW001 BKN003 BECMG 2421/2500 17011KT
