FTJP43 KWBC 240530
TAF RJOM 240510Z 2406/2512 28006KT 9000 -SHRA FEW015 SCT025 BKN035 TEMPO 2406/2409 -TSRA FEW008 SCT015 FEW020CB BKN025 BECMG 2409/2411 20004KT BECMG 2421/2500 35005KT TEMPO 2503/2509 -TSRA FEW008 SCT015 FEW020CB BKN025 BECMG 2509/2512 20004KT
