FTJP38 RJTD 241700
TAF RJSK 241710Z 2418/2600 13004KT 6000 -SHRA FEW008 BKN012 TEMPO 2418/2422 0900 TSRA FG FEW001 BKN003 FEW020CB TEMPO 2503/2512 3000 TSRA BR FEW003 BKN005 FEW020CB TEMPO 2512/2518 1500 +TSRA BR FEW003 BKN005 FEW020CB BECMG 2515/2518 26011KT TEMPO 2518/2521 4000 -SHRA BR FEW003 BKN005
