FTJP30 RJTD 241100 AAB
TAF AMD RJSK 241140Z 2412/2518 09004KT 6000 FEW008 BKN012 TEMPO 2412/2414 -TSRA FEW008 BKN015 FEW020CB TEMPO 2414/2417 4000 BR FEW005 BKN008 TEMPO 2417/2423 1500 BR FEW001 BKN003 TEMPO 2503/2515 3000 TSRA BR FEW003 BKN005 FEW020CB BECMG 2512/2515 26010KT TEMPO 2515/2518 3000 SHRA BR FEW003 BKN005
