FTKN64 HKMO 241700
TAF HKML 241700Z 2418/2518 18005KT 9999 SCT020 BECMG 2500/2503 BKN018 BECMG 2509/2512 18015KT FEW021 BECMG 2515/2518 18005KT
