FTKZ31 UUUJ 241100
TAF UAKK 241102Z 2412/2512 28006MPS 9999 SCT030CB BKN100 TX31/2509Z TN15/2423Z TEMPO 2412/2418 VRB15MPS 3100 -TSRAGR SQ BKN015CB BECMG 2418/2420 08005MPS SCT030 BKN100 TEMPO 2418/2501 VRB02MPS 3100 BR SCT007 BECMG 2501/2503 13005MPS BKN030CB BKN100 TEMPO 2506/2512 VRB13MPS 3100 -TSRA SQ BKN020CB
