FTLJ31 LJLJ 240500
TAF LJLJ 240500Z 2406/2506 VRB02KT 9999 FEW010 BKN050 PROB40 TEMPO 2406/2408 SHRA BKN045TCU PROB40 TEMPO 2413/2422 SHRA SCT045TCU PROB40 TEMPO 2414/2422 32015G25KT 5000 TSRA BKN045CB
