FTLT32 EYVI 241700
TAF EYKA 241700Z 2418/2518 VRB05KT 9000 BKN040 TEMPO 2418/2422 1500 TSRA BKN005 BKN020CB BECMG 2423/2424 5000 RA BR SCT010 OVC020 TEMPO 2500/2508 1500 TSRA BKN005 BKN015CB BECMG 2508/2509 9000 NSW BKN025 TEMPO 2509/2512 BKN020CB TEMPO 2512/2518 1500 TSRA BKN005 BKN015CB
