FTLT31 EYVI 241100
TAF EYVI 241100Z 2412/2512 VRB05KT 7000 SCT010 BKN020 TEMPO 2412/2416 VRB15G25KT 3000 TSRA BKN005 BKN015CB TEMPO 2416/2420 SCT005 BKN010CB PROB40 TEMPO 2416/2420 VRB15KT 3000 TSRA TEMPO 2420/2504 1500 BR BKN003 BKN045CB TEMPO 2504/2509 SCT015 TEMPO 2509/2512 VRB15KT BKN030CB
