FTLV32 EVRA 240200
TAF EVLA 240209Z 2403/2503 20005KT 9999 BKN040 TEMPO 2404/2405 BKN010 TEMPO 2422/2503 4000 -SHRA BKN009 BKN020CB PROB40 TEMPO 2422/2503 TS
