FTLY31 HLMC 240500
TAF HLKF 240500Z 2406/2506 VRB02KT CAVOK BECMG 2409/2411 06010KT BECMG 2421/2423 36010KT BECMG 2503/2505 VRB02KT
