FTMC33 GMMC 241700 RRB
TAF GMML 241700Z 2418/2524 35015KT 8000 NSC BECMG 2420/2422 OVC008 PROB30 2502/2508 2000 BR BECMG 2509/2511 FEW010
