FTMF20 TFFR 240500
TAF TFFR 240400Z 2406/2506 VRB02KT 9999 SCT030 TEMPO 2406/2409 3000 SHRA FEW012CB BKN018TCU BECMG 2412/2415 11012KT PROB30 TEMPO 2415/2419 10015G25KT BECMG 2422/2424 VRB02KT TEMPO 2500/2506 3000 SHRA SCT010CB BKN015TCU BKN020
