FTMG21 FMMI 240500
TAF FMNN 240500Z 2406/2506 VRB02KT 9999 SCT020 SCT040 BECMG 2409/2412 28012KT BECMG 2417/2420 VRB02KT PROB30 TEMPO 2419/2502 4000 SHRA
