FTMI20 GABS 241100
TAF GABS 241100Z 2412/2518 VRB06KT 9999 SCT016 TEMPO 2412/2415 VRB18G30KT 4000 TSRA BKN016 SCT030CB PROB40 TEMPO 2415/2422 VRB16G30KT 4500 TS SHRA SCT010 BKN016 FEW030CB PROB40 TEMPO 2502/2508 1500 BR BKN010 PROB40 TEMPO 2513/2518 4500 TS SHRA BKN016 FEW030CB
