FTML31 LMMM 242300
TAF LMML 242300Z 2500/2524 30015KT 9999 FEW012 PROB40 TEMPO 2500/2506 BKN008 BECMG 2520/2523 24004KT TEMPO 2521/2524 BKN014
