FTMO31 ZMUB 241057
TAF ZMCK 241057Z 2412/2518 VRB02MPS 9999 FEW030CB BKN033 BKN100 TN12/2421Z TX17/2507Z TEMPO 2412/2419 VRB08G13MPS 5000 TSRA SCT027CB BKN030 BKN080 BECMG 2417/2419 4500 RA FEW017 FEW027CB BKN030 BKN080 BECMG 2420/2422 33008MPS BECMG 2501/2503 34012MPS BECMG 2512/2514 35005MPS
