FTMS41 WMKK 241700
TAF WMKN 241700Z 2418/2518 17003KT 9999 FEW022 TEMPO 2418/2420 7000 -TSRA FEW017CB TEMPO 2510/2513 5000 TSRA FEW017CB
