FTMS43 WMKK 240500
TAF WMKD 240500Z 2406/2506 VRB03KT 9999 FEW020
