FTMS42 WMKK 241700
TAF WMKB 241700Z 2418/2518 VRB03KT 6000 FEW024 BECMG 2423/2500 5000 HZ BECMG 2504/2505 22010KT 6000 BECMG 2512/2513 VRB03KT
