FTMV31 VRMM 241100
TAF VRMG 241100Z 2412/2518 13013KT 9999 FEW018TCU TEMPO 2414/2420 5000 SHRA FEW019CB
