FTMZ31 FQMA 241000
TAF FQXA 241000Z 2412/2512 35012KT CAVOK TX31/2413Z TN18/2502Z BECMG 2415/2417 07012G22KT BECMG 2418/2420 15012G22KT BKN020 BECMG 2500/2502 21012KT BECMG 2506/2508 15012KT
