FTNG31 YBBN 241700 RRA
TAF AYPY 241550Z 2418/2518 18006KT 9999 BKN040 FM250001 16010KT 9999 FEW020 SCT040 FM250600 18015KT 9999 SCT020 BKN140
