FTNM01 FYWW 240400
TAF FYWB 240400Z 2406/2506 00000KT 0200 FG OVC001 BECMG 2407/2409 33003KT 9999 OVC009 BECMG 2411/2413 22010KT CAVOK
