FTNO32 ENMI 240500 AAA
TAF AMD ENDU 240650Z 2406/2506 32005KT 9999 -RA SCT008 BKN018 TEMPO 2407/2409 4000 RADZ FEW004 BKN009 TEMPO 2409/2414 BKN014
