FTNO42 KWBC 241736
TAF ENOA 241700Z 2418/2518 35009KT 9999 FEW010 PROB30 2418/2504 BKN006 BECMG 2501/2503 17010KT BECMG 2505/2507 16020KT BECMG 2511/2513 16030KT BKN012 TEMPO 2512/2515 4000 DZ BR BKN006 PROB40 2515/2518 0100 FG VV001
