FTNO41 KWBC 242036
TAF ENGC 242000Z 2421/2521 03008KT 9999 FEW015 PROB30 2421/2504 0100 FG VV001 BECMG 2501/2503 19010KT BECMG 2506/2508 16020KT BECMG 2512/2515 15030KT BKN012 TEMPO 2514/2521 4000 DZRA BR BKN006 PROB40 2515/2521 0100 FG VV001
