FTNZ32 NZKL 240000 AAA
TAF AMD NZQN 240003Z 2400/2412 04005KT 9999 SCT050 BECMG 2400/2402 24010KT BECMG 2406/2408 04005KT
