FTOM21 OOMS 241700 RRA
TAF AMD OOSA 241737Z 2418/2600 VRB03KT 5000 -DZ BR SCT006 BKN012 OVC020 TEMPO 2422/2505 2000 DZ BR SCT004 BKN010 BECMG 2506/2508 17010KT 4000 BECMG 2515/2517 VRB03KT 2000 DZ SCT003 BKN008
