FTPK31 OPKC 242300
TAF OPNH 242300Z 2500/2606 16008G18KT 5000 HZ FEW035 SCT100 TEMPO 2500/2504 14007KT 4000 HZ FEW030 SCT100 PROB30 TEMPO 2511/2515 34018G28KT 1500 -TSRA FEW025CB BKN030 OVC090 FM251800 14010KT 4000 HZ FEW030 SCT100 FM260400 16007G17KT 5000 HZ SCT100
