FTPL31 EPWA 240500
TAF EPKK 240530Z 2406/2506 17002KT CAVOK BECMG 2406/2408 25010KT TEMPO 2406/2409 SHRA SCT030CB TEMPO 2409/2418 VRB15G30KT 2500 +TSRA BKN012 BKN020CB PROB30 TEMPO 2409/2414 VRB25G40KT 1200 +TSRAGR BKN007 BKN012CB TEMPO 2418/2421 SHRA BKN030CB TEMPO 2421/2505 4000 BR
