FTPL33 EPWA 240500
TAF EPRZ 240530Z 2406/2506 24004KT CAVOK BECMG 2411/2414 30010KT PROB40 TEMPO 2411/2414 SCT040CB TEMPO 2414/2424 VRB20G40KT 1200 +TSRAGR BKN040CB TEMPO 2500/2506 VRB15G25KT 3000 TSRA BKN007 BKN012CB
