FTPO32 LPMG 241100
TAF LPPD 241100Z 2412/2512 03008KT 9999 FEW015 SCT025 TEMPO 2412/2508 VRB05KT PROB30 TEMPO 2415/2424 6000 -RADZ SCT006 BKN012 BECMG 2510/2512 35008KT FEW020
