FTPR56 SPIM 241100
TAF SPSO 241105Z 2412/2512 16005KT 4000 BR OVC013 TX20/2420Z TN14/2511Z TEMPO 2412/2414 2500 OVC008 BECMG 2414/2416 30010KT 7000 NSW BKN016 BECMG 2419/2421 23010KT BECMG 2503/2505 08005KT OVC012
