FTPR77 SPIM 241100
TAF SPJR 241100Z 2412/2512 VRB02KT 9999 SCT025 BKN050 TX21/2419Z TN05/2511Z BECMG 2416/2418 05012KT BECMG 2423/2501 VRB02KT
