FTPR41 KWBC 241212 AAA
TAF AMD SPHI 241200Z 2412/2512 15005KT 9999 SCT015 TX21/2420Z TN16/2511Z BECMG 2416/2419 19016KT CAVOK BECMG 2505/2507 16007KT BKN010
