FTPY01 SGAS 241200
TAF SGPI 241039Z 2412/2512 05004KT CAVOK TX31/2419Z TN18/2410Z BECMG 2513/2417 02014KT CAVOK BECMG 2500/2504 09008KT 9999 BKN025 BECMG 2507/2511 CAVOK
