FTQT21 OTBD 241100
TAF OTBD 241119Z 2412/2518 35015KT CAVOK TEMPO 2412/2415 13010KT 8000 NSC TEMPO 2412/2418 06008KT TEMPO 2417/2503 VRB03KT BECMG 2418/2420 23007KT
