FTRA31 KWBC 241703
TAF UTAK 241630Z 2418/2518 34018G28KT 6000 SCT026 BKN100 TEMPO 2420/2503 4000 -SHRA SCT010 SCT040CB BKN100 PROB40 TEMPO 2420/2423 VRB24KT TS BECMG 2503/2504 9999 SCT030 BKN100 TEMPO 2506/2510 35018G28KT 5000 -SHRA SCT016 SCT050CB BKN100
