FTRA32 UUUJ 241100
TAF UHPP 241038Z 2412/2518 21003MPS 4000 -RA BR BKN004 OVC020 TEMPO 2412/2421 0500 DZ FG VV001 FM242100 15005G12MPS 9999 BKN010 OVC020CB TEMPO 2421/2508 2000 SHRA BKN004 OVC012CB TEMPO 2508/2518 0700 FG VV002
