FTRA39 UUUJ 240200
TAF UERP 240200Z 2403/2503 11003G08MPS 9999 SCT020CB BKN100 TEMPO 2403/2409 09004G09MPS BKN017CB OVC100 BECMG 2409/2411 08004G09MPS 4100 -SHRA BR TEMPO 2411/2421 SCT010 BKN012CB OVC100
