FTRA37 UUUJ 242000
TAF USTR 241957Z 2421/2521 02003G09MPS 6000 BKN020 TEMPO 2421/2503 0300 FG VV002 BECMG 2505/2506 05005G11MPS 9999 BECMG 2514/2515 07003G10MPS SCT020CB TEMPO 2515/2521 06006G13MPS 6000 -SHRA SCT007 BKN016CB
