FTRH31 LDZM 240500
TAF LDDU 240525Z 2406/2506 03010KT CAVOK TX32/2410Z TN26/2503Z BECMG 2406/2408 20009KT PROB30 TEMPO 2409/2411 TS FEW040CB BECMG 2410/2412 30008KT PROB40 TEMPO 2411/2415 02015G25KT TSRA FEW050CB SCT060 BECMG 2417/2419 02018KT TEMPO 2420/2506 02020G30KT
