FTRH33 LDZM 240500
TAF LDRI 240525Z 2406/2506 06008KT CAVOK TX32/2413Z TN25/2505Z PROB30 TEMPO 2410/2415 05015KT TSRA FEW040CB BECMG 2415/2417 06012KT TEMPO 2421/2506 05015G25KT PROB30 TEMPO 2422/2504 05020G35KT PROB40 TEMPO 2501/2506 VRB10KT
