FTRO40 LRAF 241100
TAF LRFT 241100Z 2412/2512 36010KT 9999 SCT060 BKN200 BECMG 2413/2415 12012KT TEMPO 2414/2419 VRB25KT 3000 TSRA BKN050CB BECMG 2423/2501 30012KT 5000 SHRA BKN040CB OVC070 BECMG 2506/2508 9999 NSW BKN040
