FTRO31 LROM 242300
TAF LRCK 242300Z 2500/2600 VRB04KT CAVOK PROB40 TEMPO 2500/2504 5000 -TSRA SCT040CB BECMG 2506/2508 SCT035CB TEMPO 2508/2512 VRB18G28KT 3000 TSRA SCT010 BKN035CB TEMPO 2512/2516 5000 TSRA BECMG 2516/2518 5000 SHRA TEMPO 2518/2600 3000 TSRA BKN010 BKN035CB
