FTRS31 KWBC 241424
TAF UUWW 241350Z 2415/2515 01003MPS 9999 SCT040 TX25/2512Z TN16/2501Z TEMPO 2415/2417 05008MPS PROB40 TEMPO 2506/2508 -TSRA BKN020CB TEMPO 2508/2515 07010G17MPS -TSRA BKN020CB
