FTRS32 KWBC 240221
TAF URSS 240156Z 2403/2503 05003G08MPS 9999 SCT010 BKN030CB BKN100 TEMPO 2403/2409 VRB08G15MPS 0500 +TSRA SCT006 BKN020CB OVC100 BECMG 2409/2410 16004G09MPS SCT020 SCT030CB BKN100 TEMPO 2410/2417 VRB07G12MPS -TSRA BECMG 2417/2418 05004G09MPS
