FTRS39 UUUJ 240800
TAF UUBW 240753Z 2409/2509 01003MPS 9999 SCT030 TX26/2412Z TN15/2502Z PROB40 TEMPO 2410/2417 -TSRA SCT020CB TEMPO 2506/2509 -TSRA BKN020CB
