FTRS36 UUUJ 241400
TAF UMKK 241356Z 2415/2515 36003G10MPS 6000 SCT020CB TEMPO 2415/2421 2000 TSRA BKN016CB BECMG 2418/2421 28003G08MPS TEMPO 2421/2504 0300 PRFG FEW002 SCT020CB TEMPO 2504/2515 -TSRA BKN010 BKN020CB BECMG 2506/2509 31005G10MPS
