FTRS41 KWBC 242321
TAF UWOO 242259Z 2500/2524 05006G14MPS 6000 -SHRA BKN016CB TX20/2510Z TN15/2501Z TEMPO 2500/2509 03009G19MPS 1500 TSRA BR BKN005 BKN010CB TEMPO 2509/2515 01010G19MPS BKN020CB BECMG 2515/2517 33008G17MPS
