FTRS33 KWBC 242321
TAF USTR 242253Z 2500/2524 02003G09MPS 6000 BKN020 TEMPO 2500/2502 0500 FG VV003 BECMG 2507/2509 05003G12MPS 9999 BECMG 2519/2521 08005G14MPS BKN016CB TEMPO 2520/2524 4000 -SHRA SCT007 BKN016CB
