FTRW32 HRYR 241100
TAF HRZA 241100Z 2412/2518 12010KT 9999 FEW026 BECMG 2415/2417 24008KT FM252200 34004KT 9000 SCT027 BECMG 2506/2508 08004KT 9999 TEMPO 2511/2515 12008G18KT SCT026
