FTSB31 VCRI 241100
TAF VCRI 241100Z 2412/2518 25012G25KT 9999 FEW018 TX35/2508Z TN26/2500Z BECMG 2416/2418 25008KT BECMG 2503/2505 24012G25KT
