FTSG21 GOOY 241130
TAF GBYD 241100Z 2412/2518 27006KT 9999 BKN012 FEW020CB PROB40 TEMPO 2413/2419 TS BECMG 2421/2423 SCT012 PROB40 TEMPO 2506/2512 3000 TSRA BKN012 FEW020CB
