FTSI31 HCMM 240500
TAF HCMM 240500Z 2406/2512 20016KT 9999 SCT022 BECMG 2421/2500 21010KT BKN019 BECMG 2507/2510 22015KT SCT023
