FTSM20 SMJP 241600
TAF SMJP 241600Z 2418/2518 10010KT 9999 SCT020 TX34/2418Z TN24/2509Z PROB30 TEMPO 2420/2421 5000 SHRA FEW015CB SCT020 BECMG 2502/2504 VRB02KT FM251200 12005KT 9999 SCT015
