FTSP33 LEMM 242000
TAF LECO 242000Z 2421/2521 35009KT 9999 FEW020 TX22/2512Z TN17/2505Z PROB40 TEMPO 2500/2507 3000 BR BKN010 PROB30 TEMPO 2507/2510 BKN010 PROB30 TEMPO 2512/2514 34015G25KT
