FTSP39 LEMM 240200
TAF LEHC 240200Z 2403/2503 VRB04KT CAVOK TX39/2415Z TN21/2405Z BECMG 2411/2413 27010KT PROB30 TEMPO 2414/2418 28015G25KT BECMG 2418/2421 VRB05KT TEMPO 2422/2424 12008KT
