FTSR31 WSSS 242300 CCA
TAF COR WIMM 242300Z 2500/2600 12003KT 2000 BR SCT018 BECMG 2500/2502 9999 NSW BECMG 2503/2505 05010KT BECMG 2512/2514 VRB04KT 5000 HZ
