FTSY31 OSDI 241100
TAF OSDI 241100Z 2412/2518 22010KT 8000 FEW030 TEMPO 2412/2418 24015G25KT 8000 FEW030 TEMPO 2512/2518 22015G25KT 8000 FEW030
