FTTH33 VTBB 240500
TAF VTUU 240500Z 2406/2506 24008KT 9000 SCT025 TEMPO 2406/2410 24015G25KT TEMPO 2410/2415 -TSRA FEW018CB BKN025
