FTTH32 VTBB 241700
TAF VTSY 241700Z 2418/2518 00000KT 9999 FEW030 BECMG 2421/2423 3000 BR BKN005 BECMG 2500/2502 9999 NSW FEW030 BECMG 2504/2506 27008KT BECMG 2513/2515 00000KT
