FTTU22 LTAA 240500
TAF LTCJ 240440Z 2406/2506 25006KT CAVOK BECMG 2411/2413 31013KT BECMG 2419/2420 VRB02KT
