FTTV31 NFFN 241700
TAF NGFU 241727Z 2418/2518 06010KT 9999 -SHRA FEW016 BKN100 TEMPO 2418/2424 5000 TSRA FEW016CB PROB40 TEMPO 2500/2506 5000 TSRA FEW017CB PROB30 TEMPO 2418/2504 06015G25KT
