FTUG32 HUEN 240500
TAF HUEN 240500Z 2406/2512 17011KT 9000 FEW025 FEW027CB TEMPO 2406/2410 VRB10KT 8000 -TSRA SCT022 FEW024CB FM242200 36012KT 9000 FEW023 FEW025CB BECMG 2508/2512 9000 NSC
