FTUK42 KWBC 241709
TAF EGSS 241658Z 2418/2524 20009KT 9999 FEW040 PROB30 TEMPO 2418/2421 8000 RA SHRA BECMG 2423/2502 BKN010 TEMPO 2502/2509 4000 -DZ BR BKN004 PROB30 TEMPO 2509/2513 8000 -RADZ BECMG 2513/2516 SCT020 PROB30 TEMPO 2513/2516 6000 RA TEMPO 2516/2524 BKN012 PROB30 TEMPO 2521/2524 6000 RA BKN004
