FTUK51 EGRR 241400
TAF EGVN 241356Z 2415/2515 21008KT 9999 BKN028 PROB40 TEMPO 2417/2420 BKN018 PROB30 TEMPO 2419/2420 SCT012 BKN015 BECMG 2420/2423 BKN008 TEMPO 2422/2510 5000 -RADZ PROB40 TEMPO 2423/2509 3000 -DZ BKN005 PROB30 TEMPO 2503/2508 2000 DZ BKN004 PROB40 2510/2512 SCT020 BECMG 2512/2515 SCT025
