FTUY02 SUMU 240530
TAF SUCA 240530Z 2406/2506 36008KT 3000 BR NSC TX20/2418Z TN14/2411Z TEMPO 2406/2410 0800 FG BKN008 BECMG 2411/2413 35015KT CAVOK TEMPO 2420/2502 VRB15G25KT 3000 TSRA BKN015 FEW040CB BKN070
