FTVN42 KWBC 240957
TAF SVPR 241000Z 2412/2512 05002KT 9999 BKN016 SCT080 TX29/2318Z TN22/2407Z TEMPO 2414/2416 14003KT 9000 -DZ BKN013CB
