FTZA31 FAPR 241300 AAA
TAF AMD FACT 241300Z 2412/2518 02005KT 9999 SCT008 BKN018 TX15/2512Z TN08/2506Z TEMPO 2412/2414 4000 -DZ BKN005 OVC012 FM242100 VRB03KT 9999 FEW035 PROB40 TEMPO 2422/2508 0800 FG NSC FM251500 34010KT 9999 FEW010 BKN020
