FCAL41 DAMM 240800
TAF DATM 240800Z 2409/2418 24008KT 3000 SA NSC PROB30 2409/2411 24015G25KT 1500 DRSA BECMG 2411/2413 6000 NSW
