FCAL33 DAAA 240500 AAA
TAF AMD DATM 240617Z 2406/2415 26008KT 4000 SA NSC PROB30 2409/2411 28015G25KT 3000 DRSA BECMG 2411/2413 6000 NSW
