FCAL32 DAAA 242000 RRA
TAF DAOR 242000Z 2421/2506 34026KT 1500 BLSA SCT033 SCT200 PROB40 TEMPO 2421/2423 FEW030CB SCT100 BECMG 2421/2423 35012KT 4000 DU
