FCAP32 FAPR 240300
TAF FAEL 240300Z 2404/2415 27010KT 9999 FEW030 TX22/2411Z TN13/2404Z BECMG 2407/2409 25015G25KT CAVOK FM241400 23020G30KT 9999 SCT020 PROB30 TEMPO 2414/2415 -SHRA
