FCAS33 KWBC 242033
TAF AMD WPDL 242031Z 2420/2506 16006KT 9999 SCT025 BECMG 2500/2501 02010KT 9999 SCT030
