FCBY31 UMMN 240200 RRA
TAF UMII 240358Z 2404/2412 11003G08MPS 9999 BKN017 TX26/2412Z TN16/2404Z TEMPO 2404/2407 VRB02MPS 4000 BR SCT005 TEMPO 2407/2412 09003G08MPS 3000 -SHRA BKN007 BKN020CB
