FCDL56 EDZW 241400 RRA
TAF ETNN 241723Z 2417/2502 32005KT 9999 NSW SCT045
