FCDL52 ETGT 240400
TAF ETNN 240401Z 2405/2414 27005KT 9999 NSW FEW012 BKN035 TEMPO 2405/2409 30007KT 7000 NSW BKN008 BKN025 BECMG 2409/2411 31007KT 9999 NSW FEW020 BKN040
