FCDL35 EDZO 240500 RRA
TAF EDXW 240630Z 2407/2415 31015KT 9999 SCT020 TEMPO 2407/2415 31020G30KT
