FCDL40 EDZW 240500 RRG
TAF EDAC 240718Z 2408/2415 31009KT 9999 OVC010 BECMG 2408/2410 SCT015 PROB30 TEMPO 2410/2415 SHRA BKN020TCU
