FCDL42 EDZW 240500 RRB
TAF ETNN 240710Z 2408/2417 26005KT 9999 NSW FEW012 BKN050 TEMPO 2408/2409 30007KT 7000 NSW BKN008 BKN040 BECMG 2409/2411 31007KT 9999 NSW FEW020 BKN050
