FCDL74 ETGT 241300
TAF ETHN 241300Z 2414/2423 30008KT 9999 NSW SCT020 SCT060
