FCDL71 ETGT 240400
TAF ETHS 240423Z 2405/2414 30008KT 6000 NSW SCT005 BKN008 TEMPO 2405/2408 29004KT 3000 RADZ SCT002 BKN005 BECMG 2407/2409 31008KT 9999 NSW FEW010 BKN040
