FCDN31 EKCH 240200
TAF EKRK 240211Z 2403/2412 28005KT 0300 FG VV001 TEMPO 2403/2405 6000 NSW FEW005 BECMG 2405/2407 9999 NSW SCT012 TEMPO 2407/2408 BKN012 TEMPO 2410/2412 FEW020CB
