FCFI32 EFKL 242300
TAF EFSI 242334Z 2500/2509 11004KT CAVOK TEMPO 2500/2501 0700 BCFG BECMG 2501/2503 1000 BCFG BKN006 TEMPO 2503/2506 0700 BKN003 BECMG 2506/2508 SCT008
