FCFI31 EFKL 242000 AAB
TAF AMD EFMA 242153Z 2421/2506 19002KT 9999 BKN015 TEMPO 2421/2423 0700 BCFG BKN013 PROB30 TEMPO 2421/2423 0150 FG TEMPO 2423/2503 SHRA SCT030CB PROB30 TEMPO 2500/2503 0700 BCFG
