FCFP20 LFVP 240800 AAA
TAF AMD LFVP 240911Z 2409/2418 27005KT 7000 OVC002 BECMG 2411/2413 CAVOK
