FCFR60 EDZW 240500 RRA
TAF LFBA 240500Z 2406/2415 30005KT CAVOK TEMPO 2406/2408 BKN012 PROB30 TEMPO 2406/2407 BKN005
