FCFR32 LFPW 240800 RRA
TAF LFBA 240800Z 2409/2418 30007KT CAVOK PROB30 TEMPO 2409/2410 BKN009 PROB30 TEMPO 2410/2412 BKN030
