FCIL41 BIRK 241030
TAF BIVM 241030Z 2411/2419 15020KT 0800 DZ FG VV002 TEMPO 2411/2419 1500 RADZ BR OVC005 BECMG 2417/2419 16010KT
