FCIN35 VABB 241100 RRA
TAF VABO 241100Z 2412/2421 21012KT 1500 RA HZ SCT010 SCT018 FEW025TCU OVC080 TEMPO 2412/2418 20010G20KT 1000 -TSRA RA SCT008 SCT018 FEW030CB OVC070 BECMG 2413/2415 -RA HZ BECMG 2418/2420 23008KT -RA HZ
