FCIN32 VABB 242300
TAF VEBN 242300Z 2500/2509 VRB02KT 2500 BR SCT020 OVC090 TEMPO 2501/2505 07008KT 2000 -TSRA -RA FEW030CB OVC090 BECMG 2506/2508 3000 -RA BR
