FCIY34 LIIB 242300
TAF LIPC 242300Z 2500/2509 11006KT CAVOK BECMG 2500/2502 22006KT PROB30 TEMPO 2503/2509 5000 TSRA FEW030CB SCT040 BECMG 2504/2506 09008KT
