FCIY37 LIIB 240200
TAF LICT 240200Z 2403/2412 33005KT 9999 FEW015 PROB30 TEMPO 2403/2404 5000 BR SCT005 BECMG 2407/2409 32012KT CAVOK
