FCIY41 LIIB 240800
TAF LIRH 240800Z 2409/2418 VRB03KT CAVOK TEMPO 2412/2416 22010KT 9999 FEW025 SCT030 PROB30 TEMPO 2413/2415 5000 SHRA
