FCIY36 LIIB 241400
TAF LIBG 241400Z 2415/2424 34010KT 9999 SCT030 BECMG 2415/2417 28012KT BECMG 2417/2419 34008KT
