FCIY35 LIIB 241100
TAF LIRH 241100Z 2412/2421 VRB03KT CAVOK TEMPO 2412/2416 22010KT 9999 FEW025 SCT030 PROB30 TEMPO 2413/2415 5000 SHRA
