FCLJ32 LJLJ 240800
TAF LJCE 240800Z 2409/2418 24005KT 9999 FEW030 PROB40 TEMPO 2409/2410 SHRA SCT045TCU PROB30 TEMPO 2416/2418 SHRA SCT040TCU
