FCNL40 EHWX 241600
TAF EHGR 241616Z 2417/2505 33004KT 9999 SCT045 BECMG 2418/2420 VRB02KT BECMG 2422/2424 12003KT
