FCNO99 EDZW 240800
TAF ENBV 240800Z 2409/2418 21006KT CAVOK BECMG 2409/2411 32010KT
