FCNO32 ENMI 240200
TAF ENCN 240200Z 2403/2412 05007KT 9999 FEW040 SCT070 PROB40 TEMPO 2411/2412 4000 TSRA BKN014 SCT020CB
