FCPL32 EPWA 240800
TAF EPZG 240830Z 2409/2418 26007KT 9999 BKN010 BECMG 2409/2410 BKN020 TEMPO 2409/2415 SHRA BKN020CB PROB40 TEMPO 2409/2413 30016G27KT 2500 TSRA BKN014 BKN018CB
