FCPO61 LPAM 241400
TAF LPST 241403Z 2415/2424 32008KT CAVOK BECMG 2420/2422 SCT004 PROB40 TEMPO 2421/2424 3000 BR BKN002
