FCPO32 LPMG 240800
TAF LPFL 240800Z 2409/2418 18008KT 9999 FEW015 SCT030 PROB30 TEMPO 2409/2418 5000 -RADZ BR SCT006 SCT012
