FCRA31 UUUJ 240200
TAF USDA 240156Z 2403/2412 02005G10MPS 0300 FG VV002 TEMPO 2403/2406 1000 BR BKN003 FM240600 02007G13MPS 6000 SCT004 BKN016 TEMPO 2406/2412 1000 BR BKN003
