FCRO33 LROM 241400
TAF LRSV 241400Z 2415/2500 33010KT 9999 FEW030CB BKN045 TEMPO 2415/2418 VRB20KT 5000 TSRA BKN015 BKN030CB BECMG 2418/2420 NSC PROB30 TEMPO 2420/2500 5000 -SHRA SCT035CB
