FCRS31 UUUJ 240200
TAF ULWC 240200Z 2403/2412 35003G08MPS 9999 SCT020 TEMPO 2403/2405 5000 MIFG BR FEW005 TEMPO 2406/2412 02005MPS SCT016CB
