FCRS34 UUUJ 242000
TAF URWW 241959Z 2421/2506 28003G13MPS 6000 BKN016 SCT020CB TEMPO 2421/2424 31003G13MPS -SHRA BKN016 BKN020CB PROB40 TEMPO 2421/2424 1000 TSRAGR BKN003 BKN020CB TEMPO 2500/2506 31003G12MPS -SHRA PROB40 TEMPO 2500/2506 0300 FG BKN002 SCT020CB
