FCRS39 UUUJ 241400
TAF UUOL 241400Z 2415/2424 04003G08MPS 9999 SCT040
