FCRS36 UUUJ 240200
TAF ULPB 240153Z 2403/2412 09003MPS 6000 SCT025 TEMPO 2403/2405 0700 FG BKN002
