FCSN99 SMHI 241400
TAF ESDF 241430Z 2415/2418 27005KT 9999 BKN035 PROB40 2415/2417 VRB10KT 3000 TSRA SCT035CB
