FCSN34 ESWI 240500 AAA
TAF AMD ESDF 240727Z 2407/2415 23005KT 9999 BKN025 TEMPO 2407/2408 BKN030CB PROB40 2409/2412 SCT030TCU PROB40 2412/2415 SHRA SCT030CB
