FCSN32 ESSA 240500 AAB
TAF AMD ESSD 240751Z 2407/2414 VRB03KT 9999 SCT006 OVC015 TEMPO 2407/2409 4000 SHRA BKN004 BKN020CB TEMPO 2409/2414 4000 SHRA BKN006 OVC020CB
