FCSN33 ESNN 240800
TAF ESNX 240830Z 2409/2415 11005KT 9999 FEW007 BKN050 TEMPO 2409/2412 SHRA BKN007 SCT040CB TEMPO 2412/2415 SHRA BKN040CB PROB40 2412/2415 3000 TSRA
