FCSN31 ESSA 242000
TAF ESMX 242030Z 2421/2506 VRB03KT 9999 FEW045 PROB40 2421/2424 2000 MIFG BECMG 2500/2502 0200 FG VV002 PROB40 2502/2503 3000 BR SCT003 BECMG 2503/2505 9999 NSW BECMG 2505/2506 BKN007
