FCSQ41 LZIB 240500
TAF LZPP 240515Z 2406/2415 VRB02KT CAVOK PROB40 TEMPO 2406/2408 9999 SHRA FEW030CB BECMG 2407/2409 31012KT TEMPO 2408/2415 33018G30KT PROB40 TEMPO 2411/2415 9999 SHRA FEW033CB
