FCTU31 LTAA 240800
TAF LTFH 240740Z 2409/2418 35012KT 9999 SCT033 TEMPO 2409/2412 -SHRA FEW022CB BKN030 TEMPO 2415/2418 -SHRA FEW022CB BKN030
