FCUK31 EGGY 240500 RRB
TAF EGMC 240559Z 2406/2415 12006KT 9000 FEW035 BECMG 2406/2409 9999 BECMG 2410/2413 19010KT PROB30 TEMPO 2410/2415 8000 -SHRA
