FCUK55 EGRR 241100
TAF EGDR 241007Z 2412/2421 21008KT 9999 FEW010 BKN018 TEMPO 2412/2415 7000 SHRA SCT010 PROB40 TEMPO 2412/2421 4000 RADZ BKN006 PROB30 TEMPO 2414/2421 +RA RADZ BKN004 BECMG 2418/2421 2000 RADZ BR FEW001 BKN003 TEMPO 2418/2421 0500 DZ FG BKN000
