FCUK23 EGGY 241700 AAA
TAF AMD EGSY 241802Z 2418/2503 21005KT 9999 BKN020 TEMPO 2418/2421 7000 -RA BKN012 PROB30 TEMPO 2418/2421 4000 RADZ BR BKN006 BECMG 2421/2424 BKN012 TEMPO 2421/2503 4000 RADZ BKN006 PROB30 TEMPO 2500/2503 1200 BR BKN002
