FCUK52 EGRR 241100
TAF EGXT 241006Z 2412/2418 21010KT 9999 SCT030
