FCUK22 EGGY 241400
TAF EGHQ 241400Z 2415/2424 19011KT 9999 FEW012 BKN025 TEMPO 2415/2417 6000 RA -RADZ BKN010 PROB30 TEMPO 2415/2417 4000 +RA RADZ BKN004 BECMG 2417/2420 BKN010 TEMPO 2417/2420 6000 RA -RADZ BKN004 BECMG 2420/2422 BKN004 TEMPO 2420/2424 6000 RA -RADZ PROB40 2420/2424 0100 FG VV///
