FCUK32 EGGY 242300
TAF EGPA 242256Z 2500/2509 15012KT 9999 FEW010 TEMPO 2500/2506 7000 -RADZ BKN012 PROB30 TEMPO 2500/2505 15015G25KT PROB30 TEMPO 2502/2505 4000 RADZ BR BKN004 BECMG 2506/2509 22009KT PROB30 TEMPO 2506/2509 BKN008
