FCUK33 EGGY 241700
TAF EGTE 241701Z 2418/2502 20009KT 9999 FEW015 BKN020 TEMPO 2418/2423 BKN014 PROB30 TEMPO 2418/2423 6000 RA -RADZ BKN008 BECMG 2423/2502 BKN014 TEMPO 2423/2502 6000 RA -RADZ BKN008 PROB30 TEMPO 2423/2502 BKN004
