FCUZ31 UTTW 241200
TAF UTSK 241150Z 2413/2422 34010G20KT CAVOK TX38/2413Z TN26/2422Z TEMPO 2413/2422 06010KT
