FCZA31 FAPR 240300
TAF FAWK 240300Z 2404/2415 VRB03KT CAVOK TX24/2413Z TN07/2405Z BECMG 2408/2410 27010KT BECMG 2411/2413 VRB03KT
