FCAL40 DAMM 241700 AAA
TAF AMD DAOR 242015Z 2420/2503 34026KT 1500 BLSA SCT033 SCT200 PROB40 TEMPO 2420/2422 FEW030CB SCT100 BECMG 2421/2423 35012KT 4000 DU
