FCBC40 FBSK 240300
TAF FBKE 240300Z 2406/2415 36003KT CAVOK BECMG 2412/2414 08003KT
