FCBX31 EBBR 240200
TAF EBAW 240200Z 2403/2412 30004KT 9999 SCT025 PROB40 TEMPO 2400/2406 BKN013
