FCBX50 EBWM 240500
TAF EBDT 240541Z 2407/2416 32005KT 9999 FEW020 PROB40 TEMPO 2407/2408 5000 BR SCT005 SCT015 TEMPO 2408/2412 SCT020 TEMPO 2409/2416 VRB03KT
