FCBY32 UMMN 240500
TAF UMIO 240503Z 2406/2415 09005MPS 9999 BKN020 TX27/2413Z TN20/2406Z TEMPO 2406/2408 FEW003 TEMPO 2408/2415 07005G10MPS 5000 -SHRA SCT015CB
