FCDL70 ETGT 240400
TAF ETHC 240424Z 2405/2414 26008KT 6000 NSW SCT007 BKN012 TEMPO 2405/2408 25006KT 3000 RADZ BKN005 BECMG 2407/2409 28010KT 9999 NSW SCT015 SCT040
