FCDL72 ETGT 240400
TAF ETNH 240411Z 2405/2414 29012KT 9999 NSW SCT020 BECMG 2408/2410 30015G25KT 9999 NSW SCT030 SCT260
