FCDL33 EDZO 240500 RRA
TAF EDFM 240526Z 2406/2415 32006KT 9999 BKN035
