FCDL34 EDZO 240500 RRB
TAF EDLN 240620Z 2407/2409 31007KT 9999 BKN030 TEMPO 2407/2409 BKN012
