FCDN32 EKCH 241200
TAF EKVD 241151Z 2412/2416 30014KT 9999 SCT030 TEMPO 2412/2416 30015G25KT
