FCFA31 EKCH 241400
TAF EKVG 241423Z 2415/2421 16015KT 9999 SCT015 BKN025 BECMG 2417/2419 OVC007 BECMG 2419/2421 2500 -DZ BR OVC004
