FCFR33 LFPW 240500
TAF LFAT 240500Z 2406/2415 14004KT 4000 BR BKN006 PROB40 TEMPO 2406/2408 0500 FG VV/// BECMG 2408/2410 CAVOK
