FCGI32 EGRR 240500
TAF LXGB 240421Z 2406/2415 VRB03KT 9999 BKN005 BECMG 2406/2409 08008KT TEMPO 2406/2411 3000 BR BKN002 PROB40 TEMPO 2406/2410 0500 BCFG SCT001 BECMG 2409/2412 FEW010 PROB30 TEMPO 2412/2415 SCT007
