FCGL31 BGGH 240800
TAF BGGH 240759Z 2409/2418 19008KT 0200 FG -DZ OVC002 TEMPO 2409/2411 3000 BCFG FEW003 SCT004 BKN010 BECMG 2411/2413 19020KT SCT010 BKN090 TEMPO 2413/2416 18018G28KT FEW010 BKN070 BECMG 2416/2417 18018G32KT 6000 -RADZ SCT007 BKN035 TEMPO 2417/2418 18024KT 3000 SCT004 BKN007
