FCGR33 LGAT 240500
TAF LGBL 240500Z 2406/2415 27006KT 9999 FEW025 BECMG 2407/2409 10008KT SCT025 SCT080 PROB30 TEMPO 2412/2415 4000 TSRA FEW018CB SCT025 BKN080
