FCHU41 LHBM 240800
TAF LHSN 240815Z 2409/2418 VRB03KT CAVOK TEMPO 2409/2411 29008KT 9999 FEW033 BKN083 BECMG 2410/2412 31012G22KT 9999 FEW040TCU SCT050 PROB40 TEMPO 2410/2413 VRB16G29KT 5000 SHRA TSRA SCT030CB BKN050 BECMG 2413/2415 CAVOK BECMG 2416/2418 33009KT
