FCIY33 LIIB 240800
TAF LIMW 240800Z 2409/2418 VRB04KT 9999 FEW080 BECMG 2410/2412 10014KT BECMG 2416/2418 27007KT
