FCKZ31 UUUJ 240500
TAF UACP 240502Z 2406/2415 32005MPS 9999 BKN020CB OVC050 TEMPO 2406/2411 3100 -SHRA BKN015CB OVC030 BECMG 2411/2412 36005MPS TEMPO 2411/2415 3100 -SHRA BKN015CB OVC030
