FCLJ31 LJLJ 241400
TAF LJPZ 241400Z 2415/2500 07005KT 9999 FEW065 PROB30 TEMPO 2415/2416 FEW045TCU
