FCLT34 EYVI 242300
TAF EYSA 242300Z 2500/2509 VRB05KT 9000 SCT025 TEMPO 2500/2503 BKN005 TEMPO 2503/2506 3000 TSRA BKN005 BKN020CB TEMPO 2506/2509 BKN025CB
