FCNM01 FYWW 240500
TAF FYGF 240500Z 2406/2415 27003KT CAVOK BECMG 2406/2407 17004KT BECMG 2408/2410 10004KT
