FCNO34 ENMI 240200 AAA
TAF AMD ENHF 240332Z 2403/2412 24012KT 9999 SCT003 BKN008 TEMPO 2403/2410 0500 FG VV001 BECMG 2409/2411 32008KT
