FCNO33 ENMI 241100 CCA
TAF COR ENAT 241100Z 2412/2421 36010KT 9999 -RA BKN020 PROB40 TEMPO 2412/2416 RA BKN014 PROB30 TEMPO 2412/2417 35015G25KT
