FCNT31 KWBC 241730
TAF BGGH 241714Z 2418/2501 20022KT 9999 -RADZ FEW018 BKN050 BECMG 2418/2420 SCT010 BKN020 TEMPO 2418/2420 18025G35KT TEMPO 2420/2422 18025G35KT 4000 RADZ SCT004 BKN007 TEMPO 2422/2501 18025G35KT 2000 RADZ BR BKN004
