FCPF40 NTAA 241700
TAF NTTB 241700Z 2418/2503 10014KT 9999 FEW023 SCT050 BECMG 2418/2421 FEW030
