FCPO31 LPMG 241400 AAA
TAF AMD LPCS 241550Z 2415/2424 VRB05KT CAVOK BECMG 2416/2418 35015KT BECMG 2422/2424 9999 SCT012
