FCRA32 UUUJ 240500
TAF UNTT 240500Z 2406/2415 22003G08MPS 9999 SCT040CB TEMPO 2406/2409 16003MPS PROB40 TEMPO 2409/2412 -TSRA BECMG 2412/2414 12003G08MPS
