FCRE31 FMEE 241100
TAF FMEP 241100Z 2412/2421 12020KT 9999 FEW030 SCT050 TEMPO 2412/2415 12015G25KT
