FCRM31 LUKK 241100
TAF LUBM 241120Z 2412/2421 VRB06KT 9999 SCT040 FEW045CB TEMPO 2412/2421 VRB18G28KT 2000 TSRA SCT015 BKN030CB
