FCRS32 UUUJ 241400
TAF URWI 241355Z 2415/2424 34006G14MPS 9999 SCT016 SCT030CB TEMPO 2415/2421 01009G16MPS 6000 -SHRA BKN016 BKN020CB PROB40 TEMPO 2415/2421 -TSRA TEMPO 2421/2424 30003G12MPS FEW005 BKN020CB
