FCSV30 FDMS 241000
TAF FDSK 241000Z 2412/2421 33310KT CAVOK BECMG 2419/2421 17009KT 9999 SCT030
