FCSW31 LSSW 241100
TAF LSZS 241125Z 2412/2421 34012KT 9999 FEW045 SCT060 TX21/2413Z TN21/2413Z BECMG 2417/2420 VRB02KT CAVOK
