FCTA31 UUUJ 240600
TAF UTDK 240601Z 2407/2419 VRB02MPS 9999 FEW066 SCT100 TEMPO 2407/2415 21005MPS BECMG 2415/2416 03005MPS
