FCTS31 DTTA 241200
TAF DTKA 241200Z 2413/2422 26015KT 9999 SCT020 BECMG 2419/2421 27005KT
