FCTU34 LTAA 241400
TAF LTCP 241340Z 2415/2424 33013KT 9999 FEW040 SCT100 TEMPO 2415/2418 31015G25KT BECMG 2417/2418 CAVOK TEMPO 2418/2421 33020G30KT
