FCTU33 LTAA 240500
TAF LTAS 240440Z 2406/2415 VRB02KT 9999 SCT040 SCT100 BECMG 2406/2408 01012KT BECMG 2413/2415 CAVOK
