FCUK24 EGGY 240800 AAA
TAF AMD EGEC 240934Z 2409/2417 14012KT 9999 FEW020 TEMPO 2409/2417 BKN014 PROB40 TEMPO 2409/2414 BKN004 PROB30 TEMPO 2411/2417 15015G25KT PROB40 TEMPO 2414/2417 6000 -RADZ BKN004
