FCUK53 EGRR 240800
TAF EGOV 240753Z 2409/2418 18012KT 9999 FEW007 BKN030 PROB40 TEMPO 2409/2411 -RA SCT007 TEMPO 2411/2414 6000 RA FEW006 SCT010 PROB30 TEMPO 2412/2414 SCT006 BECMG 2413/2415 19015G25KT BKN010 OVC020 PROB40 TEMPO 2414/2415 3000 RADZ SCT005 TEMPO 2416/2418 3000 BR DZ SCT004
