FCUK54 EGRR 241700
TAF EGVP 241627Z 2418/2502 22008KT 9999 FEW020 PROB40 TEMPO 2418/2421 BKN018 PROB30 TEMPO 2418/2421 7000 SHRA SCT012 BECMG 2421/2423 BKN010 PROB40 TEMPO 2423/2502 4000 DZ BKN005 PROB30 TEMPO 2501/2502 BKN003
