FCUK25 EGGY 242000 AAA
TAF AMD EGPO 242242Z 2422/2506 14009KT 9999 FEW007 SCT010 TEMPO 2422/2506 6000 -RADZ BKN007 PROB40 TEMPO 2422/2423 2000 +RA RADZ BKN003 PROB30 TEMPO 2422/2424 16015G25KT PROB40 TEMPO 2423/2504 2000 RADZ BR BKN001 BECMG 2500/2503 22010KT
