FCZA32 FAPR 240600
TAF FAWK 240600Z 2407/2418 VRB03KT CAVOK TX24/2413Z TN14/2418Z BECMG 2408/2410 27010KT BECMG 2411/2413 VRB03KT
