METAR WSSS 190530Z VRB02KT 8000 -SHRA FEW015 FEW017CB FEW018TCU BKN150 29/24 Q1008 NOSIG=
