METAR WSSL 200100Z 29003KT 230V010 9999 FEW018 BKN300 28/24 Q1009=
