METAR VTSB 200100Z 32003KT 280V020 9999 FEW013 27/27 Q1010=
