METAR WSSS 170530Z 23007KT 190V360 6000 R20R/P2000 R20C/1200N SHRA  FEW009 SCT016TCU FEW017CB 26/23 Q1008 WS R20C BECMG FM0540 TL0550 NSW=
