METAR DAPL 121600Z VRB02KT CAVOK 29/26 Q1014
