METAR EVRA 270620Z 32008KT 240V340 4300 SNRA OVC004 01/00 Q0997
R36/490393 NOSIG=